REGION,DM,DISTRICT,STORE,STORE_NAME,STREET_ADDRESS,CITY,STATE,ZIP_CODE,PHONE,FAX,HOURS
1,Chris Logan,101,22,East Brunswick,415 Hwy 18 South,East Brunswick,NJ,08816,(732) 698-9001,(732) 698-9002,Mon-Fri 10-9 Sat 9:30-9 Sun 10-7
1,Chris Logan,101,25,Little Falls,1565 Rt 46 E,Little Falls,NJ,07424,(973) 785-4700,(973) 785-8685,Mon-Fri 10-9 Sat 10-8:30 Sun 9:30-6
1,Chris Logan,101,27,Union,2702 Route 22 E,Union,NJ,07083,(908) 624-9115,(908) 624-9116,Mon-Sat 9-9 Sun 9:30-7
1,Chris Logan,101,56,East Hanover,327 Rt 10,East Hanover,NJ,07936,(973) 428-8606,(973) 428-9055,Mon-Fri 10-9 Sat 10-8:30 Sun 10-7
1,Chris Logan,101,317,Edgewater,12 Promenade,Edgewater,NJ,07020,(201) 945-5967,(201) 941-6014,Mon-Fri 10-9 Sat 9:30-8:30 Sun 10-6
1,Chris Logan,101,327,Clifton,370 Route 3 West,Clifton,NJ,07014,(973) 916-5070,(973) 916-5072,Mon-Fri 9-9 Sat 9:30-9 Sun 10-7
1,Chris Logan,101,425,Watchung,1579 Highway 22 West,Watchung,NJ,07069,(908) 322-1240,(908) 322-1340,Mon-Fri 9:30-8:30 Sat 9:30-9 Sun 10-6
1,Chris Logan,101,575,East Rutherford,130 Rte 17 North,East Rutherford,NJ,07073,(201) 460-3405,(201) 460-3421,Mon-Sat 9:30-9 Sun 10-7
1,Glenn Forbes,102,15,Huntington,191 Walt Whitman Rd (Rt 110),Huntington Station,NY,11746,(631) 427-6779,(631) 271-9755,Mon-Fri 10-9 Sat 10-8:30 Sun 10-6
1,Glenn Forbes,102,23,Yonkers,2363 Central Park Ave,Yonkers,NY,10710,(914) 779-5232,(914) 779-2155,Mon-Fri 9:30-9 Sat 9-8:30 Sun 9:30-7
1,Glenn Forbes,102,29,Oceanside,3463 Long Beach Rd,Oceanside,NY,11572,(516) 536-4752,(516) 536-9317,Mon-Fri 9:30-9 Sat 9:30-8:30 Sun 10-7
1,Glenn Forbes,102,30,Nanuet,49 E Rt 59,Nanuet,NY,10954,(845) 624-0220,(845) 624-0222,Mon-Sat 9:30-9 Sun 10-7
1,Glenn Forbes,102,33,Syosset,190 Jericho Tpke,Syosset,NY,11791,(516) 364-6880,(516) 364-6648,Mon-Sat 10-8:30 Sun 10-7
1,Glenn Forbes,102,38,Merrick,2100 Merrick Rd,Merrick,NY,11566,(516) 771-4955,(516) 771-4956,Mon-Fri 9:30-9 Sat 10-9 Sun 10-7
1,Glenn Forbes,102,39,Port Chester,535 Boston Post Rd,Port Chester,NY,10573,(914) 939-5189,(914) 939-5740,Mon-Sat 9:30-8:30 Sun 10-6
1,Glenn Forbes,102,40,Levittown,3145 Hempstead Tpke,Levittown,NY,11756,(516) 520-5408,(516) 520-5416,Mon-Fri 9:30-9 Sat 9-8:30 Sun 9:30-7
1,Glenn Forbes,102,41,Sayville,5171 Sunrise Hwy,Bohemia,NY,11716,(631) 244-9527,(631) 244-9585,Mon-Fri 9:30-9 Sat 9:30-8 Sun 10-6
1,Glenn Forbes,102,44,Massapequa,1050 Sunrise Hwy,Massapequa,NY,11758,(516) 795-9511,(516) 795-9630,Mon-Fri 10-9 Sat 9:30-9 Sun 10-6
1,Glenn Forbes,102,57,Valley Stream,672 W Sunrise Hwy,Valley Stream,NY,11581,(516) 256-4392,(516) 256-4721,Mon-Fri 9:30-9 Sat 9-9 Sun 10-7
1,Glenn Forbes,102,121,Bay Shore,1675 Sunrise Hghway,Bayshore,NY,11706,(631) 969-4565,(631) 969-4595,Mon-Fri 9:30-9 Sat 9:30-8:30 Sun 10-7
1,Glenn Forbes,102,324,Garden City,502 Old Country Rd,Garden City,NY,11530,(516) 570-2999,(516) 248-0307,Mon-Fri 9:30-9 Sat 10-8:30 Sun 10-7
1,Glenn Forbes,102,346,White Plains,455 Central Ave,White Plains,NY,10606,(914) 948-1048,(914) 948-1329,Mon-Sat 9:30-8:30 Sun 11-6
1,Glenn Forbes,102,354,Commack,4199 East Jericho Turnpike,East Northport,NY,11731,(631) 462-0139,(631) 462-0276,Mon-Fri 10-8:30 Sat 10-8 Sun 10-6
1,Glenn Forbes,102,714,Lake Grove,1320 Stony Brook Rd,Stony Brook,NY,11790,(631) 689-8315,(631) 689-8319,Mon-Fri 10-8:30 Sat 10-8 Sun 10-7
1,Glenn Forbes,102,731,Riverhead,1751 Old Country Road,Riverhead,NY,11901,(631) 727-7354,(631) 727-7420,Mon-Sat 9:30-8:30 Sun 10-6
1,Glenn Forbes,102,759,West Babylon,1063 Montauk Hwy,West Babylon,NY,11704,(631) 587-1273,(631) 587-1274,Mon-Fri 9:30-9 Sat 9:30-8 Sun 11-6
1,Glenn Forbes,102,760,Garden City Park,2350 Jericho Tpke,New Hyde Park,NY,11040,(516) 741-4780,(516) 741-4781,Mon-Fri 9:30-9 Sat 9:30-8 Sun 10-6
1,Jessica Wolfe,104,257,New Hartford,4610 Commercial Dr,New Hartford,NY,13413,(315) 768-4266,(315) 768-6554,Mon-Fri 10-8 Sat 9:30-8 Sun 10-5
1,Jessica Wolfe,104,274,Pittsford,3240 Monroe Avenue,Rochester,NY,14618,(585) 264-9570,(585) 264-0844,Mon-Fri 10-8:30 Sat 9:30-8 Sun 10-7
1,Jessica Wolfe,104,287,University Mall,195 Dorset St,South Burlington,VT,05403,(802) 862-3958,(802) 660-4724,Mon-Sun 10-6
1,Jessica Wolfe,104,297,Cheektawaga,1775 Walden Ave,Buffalo,NY,14225,(716) 893-4716,(716) 895-2963,Mon-Fri 9:30-8 Sat 10-8 Sun 10-6
1,Jessica Wolfe,104,329,Amherst,1250 Niagara Falls Blvd,Tonawanda,NY,14150,(716) 832-3058,(716) 832-3697,Mon-Fri 10-8 Sat 9:30-8 Sun 11-6
1,Jessica Wolfe,104,331,Albany,108 Wolf Rd,Albany,NY,12205,(518) 435-2401,(518) 435-2403,Mon-Sat 9:30-8:30 Sun 10-7
1,Jessica Wolfe,104,332,Middletown,473 Route 211 East,Middletown,NY,10940,(845) 343-4047,(845) 343-4059,Mon-Fri 9:30-9 Sat 9:30-8:30 Sun 10-7
1,Jessica Wolfe,104,406,Newburgh,1217 Route 300,Newburgh,NY,12550,(845) 567-1850,(845) 567-1962,Mon-Sat 9:30-8:30 Sun 10-7
1,Jessica Wolfe,104,407,Dewitt,3425 Erie Blvd.,Syracuse,NY,13214,(315) 446-2128,(315) 446-2358,Mon-Sat 10-8 Sun 11-6
1,Jessica Wolfe,104,544,Ithaca,719 South Meadow Dr,Ithaca,NY,14850,(607) 277-0327,(607) 277-0347,Mon-Sat 10-8 Sun 12-6
1,Jessica Wolfe,104,577,Niskayuna,437 Balltown Road,Schenectady,NY,12304,(518) 377-0815,(518) 377-0832,Mon-Sat 10-8 Sun 11-6
1,Jessica Wolfe,104,611,Erie,7000 Peach Street,Erie,PA,16509,(814) 864-3159,(814) 864-3170,Mon-Fri 10-8:30 Sat 10-8 Sun 11-6
1,Jessica Wolfe,104,637,Big Flats,950 County Road 64,Elmira,NY,14903,(607) 739-3059,(607) 739-2139,Mon-Fri 9:30-8 Sat 10-8 Sun 10-6
1,Jessica Wolfe,104,691,Cortland,3025 East Main Street,Cortlandt Manor,NY,10567,(914) 526-4145,(914) 526-4154,Mon-Sat 10-8:30 Sun 10-6
1,Jessica Wolfe,104,718,Poughkeepsie,1936 South Rd,Poughkeepsie,NY,12601,(845) 296-0790,(845) 296-0794,Mon-Sat 9:30-9 Sun 10-6
1,Jessica Wolfe,104,728,Williamsville,5095 Transit Road,Buffalo,NY,14221,(716) 635-4756,(716) 635-4757,Mon-Sat 10-8 Sun 11-6
1,Jessica Wolfe,104,841,Vestal,2545 Vestal Parkway,Vestal,NY,13850,(607) 729-4960,,Mon-Sat 10-8 Sun 10-6
1,Jessica Wolfe,104,860,Kingston,1273 Ulster Avenue,Kingston,NY,12401,(845) 382-6910,,Mon-Fri 10-8:30 Sat 9:30-8:30 Sun 10-6
1,Tom Russo,106,119,East Harrisburg,5125 Jonestown Rd,Harrisburg,PA,17112,(717) 541-8900,(717) 541-8545,Mon-Sat 9:30-8:30 Sun 10-6
1,Tom Russo,106,126,Roxbury,450 Rt 10 West,Ledgewood,NJ,07852,(973) 598-9901,(973) 598-9906,Mon-Fri 9:30-9 Sat 9:30-8:30 Sun 10-7
1,Tom Russo,106,170,Wyomissing,2719 N Meridian Blvd,Reading,PA,19610,(610) 396-1490,(610) 396-1494,Mon-Fri 9:30-9 Sat 9-8:30 Sun 10-6
1,Tom Russo,106,221,York,415 Loucks Rd,York,PA,17404,(717) 846-6192,(717) 846-6284,Mon-Fri 9:30-8:30 Sat 9:30-8 Sun 11-6
1,Tom Russo,106,483,Robinson,210 Settlers Ridge Center Dr.,Pittsburgh,PA,15205,(412) 787-0369,(412) 787-0389,Mon-Fri 10-8:30 Sat 9:30-8:30 Sun 11-6
1,Tom Russo,106,486,Cranberry,20273 Route 19,Cranberry Township,PA,16066,(724) 742-0985,(724) 742-0989,Mon-Sat 10-8:30 Sun 10-6
1,Tom Russo,106,534,Monroeville,4145 William Penn Hwy,Monroeville,PA,15146,(412) 380-1493,(412) 372-2063,Mon-Fri 9:30-8:30 Sat 9:30-8 Sun 11-6
1,Tom Russo,106,623,Easton,3862 Dryland Way,Easton,PA,18045,(610) 253-6924,(610) 923-5251,Mon-Sat 10-8:30 Sun 10-6
1,Tom Russo,106,681,Lancaster,1478 Harrisburg Pike,Lancaster,PA,17601,(717) 299-1798,(717) 390-8756,Mon-Sat 11-7 Sun 11-6
1,Tom Russo,106,726,Stroudsburg,300 Commerce Blvd,Stroudsburg,PA,18360,(570) 421-1545,(570) 421-1610,Mon-Fri 10-9 Sat 10-8 Sun 11-6
1,Tom Russo,106,782,Wilkes Barre,280 Mundy Street,Wilkes Barre,PA,18702,(570) 822-2072,(570) 822-2153,Mon-Sat 9:30-9 Sun 11-6
1,Tom Russo,106,836,Mechanicsburg,6455 Carlisle Pk,Mechanicsburg,PA,17050,(717) 791-0120,(717) 791-0128,Mon-Sat 10-8 Sun 11-6
1,Tom Russo,106,882,Whitehall,2180 MacArthur Road,Whitehall,PA,18052,(610) 437-9004,(610) 437-9028,Mon-Fri 10-8:30 Sat 9:30-8:30 Sun 11-6
1,Bridget Diorio,107,42,Princeton,721 Nassau Park Blvd,Princeton,NJ,08540,(609) 716-9400,(609) 716-9536,Mon-Fri 10-8:30 Sat 10-9 Sun 9:30-7
1,Bridget Diorio,107,49,Bryn Mawr,715 W Lancaster Ave,Bryn Mawr,PA,19010,(610) 519-0249,(610) 519-1071,Mon-Sat 10-8 Sun 11-6
1,Bridget Diorio,107,53,Montgomeryville,757 Bethlehem Pike,Montgomeryville,PA,18936,(215) 368-8144,(215) 368-8177,Mon-Sat 9:30-8 Sun 10-6
1,Bridget Diorio,107,60,Chestnut St,1701 Chestnut St,Philadelphia,PA,19103,(215) 568-4898,(215) 568-4879,Mon-Sat 10-8 Sun 12-6
1,Bridget Diorio,107,68,Springfield,1058 Baltimore Pk,Springfield,PA,19064,(610) 541-0601,(610) 541-0607,Mon-Fri 10-9 Sat 10-8 Sun 11-6
1,Bridget Diorio,107,84,Exton,219 Pottstown Pike,Exton,PA,19341,(484) 875-9390,(484) 875-9394,Mon-Fri 10-8 Sat 9-8 Sun 11-6
1,Bridget Diorio,107,325,King of Prussia,445B W Dekalb Pike,King of Prussia,PA,19406,(610) 337-0417,(610) 337-0969,Mon-Fri 10-8:30 Sat 10-8 Sun 11-6
1,Bridget Diorio,107,504,Bala Cynwyd,31 East City Ave,Bala Cynwyd,PA,19004,(610) 667-1527,(610) 667-1589,Mon-Fri 9:30-9 Sat 9:30-8:30 Sun 11-7
1,Bridget Diorio,107,694,Cottman Ave,2383 Cottman Ave,Philadelphia,PA,19149,(215) 331-2023,(215) 331-2032,Mon-Sat 10-8:30 Sun 11-6
1,Bridget Diorio,107,716,Willow Grove,1817 Old York Rd,Abington,PA,19001,(215) 659-1660,(215) 659-2219,Mon-Sat 9:30-8:30 Sun 11-6
1,Bridget Diorio,107,745,Havertown,116 W Township Line Road,Havertown,PA,19083,(610) 789-1823,(610) 789-1824,Mon-Fri 10-8:30 Sat 10-8 Sun 11-6
1,Bridget Diorio,107,748,Langhorne,620 Commerce Drive,Fairless Hills,PA,19030,(215) 943-1848,(215) 943-2560,Mon-Fri 10-9 Sat 10-8 Sun 11-6
1,Bridget Diorio,107,818,Chadds Ford,1731 Wilmington Pike,Glen Mills,PA,19342,(610) 358-4367,,Mon-Sat 11-7 Sun 12-6
1,Bridget Diorio,107,835,Feasterville,192 East Street Road,Feasterville Trevose,PA,19053,(215) 322-7629,(215) 322-7908,Mon-Sat 10-8:30 Sun 12-6
1,Bridget Diorio,107,1500,Paoli,23 Leopard Rd (Rt. 252),Paoli,PA,19301,(610) 644-3015,(610) 644-3178,Mon-Sat 10-5:30 Sun 12-4
1,Gisele Pohl,108,75,Norwalk,565 Connecticut Avenue,Norwalk,CT,06854,(203) 866-6837,(203) 866-7125,Mon-Fri 9:30-9 Sat 9-8:30 Sun 10-7
1,Gisele Pohl,108,86,Milford,1260-1270 Boston Post Rd,Milford,CT,06460,(203) 882-9231,(203) 882-9490,Mon-Fri 10-8 Sat 9:30-8 Sun 10-7
1,Gisele Pohl,108,105,Manchester,105 Buckland Hills Dr,Manchester,CT,06042,(860) 644-2834,(860) 644-3059,Mon-Fri 9:30-8:30 Sat 9:30-9 Sun 10-6
1,Gisele Pohl,108,136,Danbury,21 Federal Road,Brookfield,CT,06804,(203) 775-3103,(203) 775-6401,Mon-Fri 9:30-8:30 Sat 9-8:30 Sun 10-7
1,Gisele Pohl,108,264,Newington,3391 Berlin Turnpike,Newington,CT,06111,(860) 594-8634,(860) 594-8637,Mon-Fri 9:30-9 Sat 9:30-8:30 Sun 10-7
1,Gisele Pohl,108,333,West Hartford,1600 S East Rd,Farmington,CT,06032,(860) 674-9057,(860) 674-9679,Mon-Fri 10-8:30 Sat 10-8 Sun 10-6
1,Gisele Pohl,108,342,Nashua,274 Daniel Webster Hghwy,Nashua,NH,03060,(603) 888-2631,(603) 888-2741,Mon-Fri 9:30-8:30 Sat 9:30-8 Sun 10-7
1,Gisele Pohl,108,456,Manchester,1753 South Willow St,Manchester,NH,03103,(603) 625-1425,(603) 625-1469,Mon-Fri 9:30-9 Sat 9:30-8 Sun 11-7
1,Gisele Pohl,108,502,North Haven,417 Universal Drive North,North Haven,CT,06473,(203) 234-2028,(203) 234-7968,Mon-Fri 10-8:30 Sat 9:30-8:30 Sun 10-7
1,Gisele Pohl,108,536,South Portland,335 Maine Mall Rd,South Portland,ME,04106,(207) 761-9907,(207) 761-9781,Mon-Fri 10-8 Sat 9:30-8:30 Sun 11-6
1,Gisele Pohl,108,583,Salem,291 South Broadway,Salem,NH,03079,(603) 890-4669,(603) 590-4670,Mon-Sat 9:30-9 Sun 10-7
1,Gisele Pohl,108,708,Stamford,1003 High Ridge Rd,Stamford,CT,06905,(203) 609-0147,(203) 609-0151,Mon-Fri 10-9 Sat 10-8:30 Sun 10-6
1,Gisele Pohl,108,762,Enfield,103 Elm Street,Enfield,CT,06082,(860) 253-9082,(860) 253-9195,Mon-Sat 9:30-8:30 Sun 10-6
1,Gisele Pohl,108,784,Bangor,569 A Stillwater Ave,Bangor,ME,04401,(207) 941-8524,(207) 941-8532,Mon-Sat 10-8 Sun 11-6
1,Gisele Pohl,108,813,Fairfield,2183 Black Rock Tpke,Fairfield,CT,06825,(203) 335-0581,(203) 335-0704,Mon-Sat 9-7 Sun 11-6
1,Gisele Pohl,108,828,Seabrook,652 Lafayette Road,Seabrook,NH,03874,(603) 474-0126,(603) 474-0133,Mon-Sat 9:30-8 Sun 10-6
1,Donna Waryanka,110,46,Concord Pike,4609 Concord Pike,Wilmington,DE,19803,(302) 479-9080,(302) 479-9082,Mon-Fri 9:30-8:30 Sat 9:30-8 Sun 10-6
1,Donna Waryanka,110,59,Owings Mills,9404 Reisterstown Rd.,Owings Mills,MD,21117,(443) 394-8787,(443) 394-8783,Mon-Fri 9:30-8:30 Sat 9-9 Sun 10-7
1,Donna Waryanka,110,83,Kirkwood Hwy,3847 Kirkwood Hwy,Wilmington,DE,19808,(302) 993-1374,(302) 993-1385,Mon-Fri 9:30-7 Sat 9-7 Sun 10-6
1,Donna Waryanka,110,134,Mays Landing,2300 Wrangleboro Rd,Mays Landing,NJ,08330,(609) 646-1062,(609) 646-1082,Mon-Fri 9:30-9 Sat 9:30-8:30 Sun 10-6
1,Donna Waryanka,110,295,Salisbury,2657 N. Salisbury Blvd,Salisbury,MD,21801,(410) 341-6945,(410) 341-6947,Mon-Sat 9:30-8:30 Sun 11-6
1,Donna Waryanka,110,300,Brick,588 Route 70,Brick,NJ,08723,(732) 920-0829,(732) 920-0871,Mon-Fri 9:30-8 Sat 9:30-8:30 Sun 10-6
1,Donna Waryanka,110,335,Cherry Hill,2010 Marlton Pike West,Cherry Hill,NJ,08002,(856) 317-0191,(856) 317-0570,Mon-Fri 9:30-9 Sat 9:30-8:30 Sun 10-7
1,Donna Waryanka,110,337,Bel Air,699 Baltimore Pike,Bel Air,MD,21014,(410) 420-9781,(410) 838-5485,Mon-Fri 9:30-8:30 Sat 9-8 Sun 10-7
1,Donna Waryanka,110,339,Deptford,1188 Hurffville Rd,Woodbury,NJ,08096,(856) 845-8349,(856) 686-4725,Mon-Fri 9:30-8:30 Sat 9-8:30 Sun 10-6
1,Donna Waryanka,110,464,Manahawkin,237 Stafford Park Blvd,Manahawkin,NJ,08050,(609) 978-2975,(609) 978-2973,Mon-Fri 9:30-8:30 Sat 10-8 Sun 10-7
1,Donna Waryanka,110,546,Dover,1141 N. Dupont Hwy,Dover,DE,19901,(302) 734-8041,(302) 674-2305,Mon-Sat 10-8 Sun 11-6
1,Donna Waryanka,110,655,Baltimore,3719 Boston Street,Baltimore,MD,21224,(410) 327-5174,(410) 327-5189,Mon-Sat 10-8 Sun 11-6
1,Donna Waryanka,110,709,Towson,1313 York Rd,Lutherville Timonium,MD,21093,(410) 821-1611,(410) 821-7120,Mon-Fri 9:30-9 Sat 9-8:30 Sun 10-6
1,Donna Waryanka,110,710,Mt. Laurel,1490 Nixon Dr,Mount Laurel,NJ,08054,(856) 234-4488,(856) 234-4571,Mon-Fri 9:30-9 Sat 10-8:30 Sun 10-6
1,Donna Waryanka,110,724,Voorhees,148 Route 73,Voorhees,NJ,08043,(856) 809-0106,(856) 809-0108,Mon-Sat 10-8 Sun 11-6
1,Donna Waryanka,110,741,Vineland,2229 North 2nd Street,Millville,NJ,08332,(856) 825-0479,(856) 825-0610,Mon-Sat 9:30-8:30 Sun 11-6
1,Donna Waryanka,110,744,Turnersville,610 Cross Keys Road,Sicklerville,NJ,08081,(856) 740-5080,(856) 740-0790,Mon-Fri 10-8:30 Sat 10-8 Sun 11-6
1,Donna Waryanka,110,867,Burlington,2601 Mt. Holly Road,Burlington,NJ,08016,(609) 747-7888,,Mon-Sat 9:30-8:30 Sun 10-6
1,Erik Magerkorth,111,18,Rt 17 Paramus,556 Route 17 North,Paramus,NJ,07652,(201) 447-0055,(201) 447-8801,Mon-Fri 9:30-9 Sat 9-9 Sun 10-6
1,Erik Magerkorth,111,32,Freehold,3681 Rt 9 N,Freehold,NJ,07728,(732) 866-8885,(732) 866-4173,Mon-Fri 9:30-8:30 Sat 9-8:30 Sun 10-6
1,Erik Magerkorth,111,34,Toms River,1232 Hooper Ave,Toms River,NJ,08753,(732) 244-4444,(732) 244-4441,Mon-Fri 10-8:30 Sat 9:30-8 Sun 10-6
1,Erik Magerkorth,111,35,Woodbridge,185 Rt 1 S,Metuchen,NJ,08840,(732) 635-1790,(732) 635-1839,Mon-Fri 10-9 Sat 9:30-8:30 Sun 10-7
1,Erik Magerkorth,111,37,Rt 4 Paramus,137 E State Rt 4,Paramus,NJ,07652,(201) 556-1117,(201) 556-1119,Mon-Fri 9:30-9 Sat 9-9 Sun 10-7
1,Erik Magerkorth,111,73,Eatontown,41 Hwy Rt 36,Eatontown,NJ,07724,(732) 389-7523,(732) 389-2707,Mon-Fri 10-9 Sat 10-8:30 Sun 10-7
1,Erik Magerkorth,111,82,Holmdel,2128 State Route 35,Holmdel,NJ,07733,(732) 275-6800,(732) 275-6736,Mon-Sat 9:30-8:30 Sun 10-6
1,Erik Magerkorth,111,296,Bridgewater,397 Rt 28,Raritan,NJ,08869,(908) 231-7589,(908) 231-7816,Mon-Fri 9:30-9 Sat 9:30-8:30 Sun 10-7
1,Erik Magerkorth,111,391,North Bergen,2100 88th Street,North Bergen,NJ,07047,(201) 758-0404,(201) 868-6986,Mon-Fri 9:30-9 Sat 9-9 Sun 9:30-6
1,Erik Magerkorth,111,547,Ramsey,984 Route 17 North,Ramsey,NJ,07446,(201) 327-2932,(201) 327-2936,Mon-Sat 9:30-9 Sun 10-6
1,Erik Magerkorth,111,679,Clark,1255 Raritan Rd.,Clark,NJ,07066,(732) 388-0105,(732) 388-0386,Mon-Fri 9:30-9 Sat 9:30-8:30 Sun 10-6
1,Erik Magerkorth,111,684,Wayne,1428 Route 23 North,Wayne,NJ,07470,(973) 628-5382,(973) 628-5383,Mon-Sat 10-8:30 Sun 10-6
1,Erik Magerkorth,111,751,Marlboro,67 US Highway 9,Morganville,NJ,07751,(732) 972-1251,(732) 972-1262,Mon-Sat 10-8:30 Sun 10-6
1,Erik Magerkorth,111,886,North Brunswick,542 Shoppes Blvd,North Brunswick,NJ,08902,(732) 514-6512,,Mon-Fri 10-8:30 Sat 10-9 Sun 11-6
1,Erik Magerkoth,111,887,South Plainfield,4910 Hadley Center Drive,South Plainfield,NJ,07080,(908) 561-0484,,Mon-Sat 10-7 Sun 11-6
1,Germaine Morris,112,67,Peabody,300 Andover St (Route 114),Peabody,MA,01960,(978) 532-1199,(978) 532-6312,Mon-Sat 10-8:30 Sun 10-7
1,Germaine Morris,112,71,Saugus,735 Broadway Hillside Plaza,Saugus,MA,01906,(781) 231-7424,(781) 231-7022,Mon-Sat 10-8 Sun 10-6
1,Germaine Morris,112,157,Auburn,434 Southbridge Street,Auburn,MA,01501,(508) 832-5714,(508) 832-7609,Mon-Sat 10-8 Sun 11-6
1,Germaine Morris,112,336,Warwick,1376 Bald Hill Rd,Warwick,RI,02886,(401) 828-1956,(401) 828-1989,Mon-Fri 9:30-9 Sat 9-8:30 Sun 10-7
1,Germaine Morris,112,414,"Hyannis, MA",1070 Iyannough Road,Hyannis,MA,02601,(508) 771-0741,(507) 771-0831,Mon-Fri 9-8 Sat 9-7 Sun 11-6
1,Germaine Morris,112,549,Shrewsbury,77A Boston Turnpike,Shrewsbury,MA,01545,(508) 792-1856,(508) 754-8192,Mon-Sat 10-8:30 Sun 11-7
1,Germaine Morris,112,607,Braintree,30 Forbes Road,Braintree,MA,02184,(781) 843-1354,(781) 843-1380,Mon-Fri 10-9 Sat 10-8:30 Sun 10-7
1,Germaine Morris,112,626,North Attleborough,1400 South Washington St,North Attleboro,MA,02760,(508) 699-0516,(508) 699-0607,Mon-Sat 10-7 Sun 11-6
1,Germaine Morris,112,667,Framingham,30 Worcester Road,Framingham,MA,01702,(508) 620-8909,(508) 620-9877,Mon-Fri 10-8 Sat 9:30-8 Sun 11-6
1,Germaine Morris,112,688,Woburn,103 A Commerce Way,Woburn,MA,01801,(781) 933-5653,(781) 938-0912,Mon-Sat 10:30-7:30 Sun 11-5
1,Germaine Morris,112,689,Leominster,40 Orchard Hill Park Drive,Leominster,MA,01453,(978) 534-2409,(978) 537-1059,Mon-Fri 10-8:30 Sat 10-8 Sun 11-6
1,Germaine Morris,112,754,Newton,170 Needham St,Newton Upper Falls,MA,02464,(617) 527-7500,(617) 527-0252,Mon-Sat 10-8 Sun 11-6
1,Germaine Morris,112,763,Andover,435 Winthrop Ave,Lawrence,MA,01843,(978) 681-9162,,Mon-Fri 10-8:30 Sat 10-8 Sun 11-6
1,Germaine Morris,112,814,Marlborough,423 Lakeside Ave,Marlborough,MA,01752,(508) 229-1740,(508) 229-1741,Mon-Sat 11-7 Sun 11-5
1,Germaine Morris,112,822,Holyoke,239 Whiting Farms Rd,Holyoke,MA,01040,(413) 538-4775,,Mon-Sat 10-7 Sun 11-6
1,Germaine Morris,112,834,North Providence,1650 Mineral Spring Ave,Providence,RI,02904,(401) 353-2376,(401) 353-2392,Mon-Fri 10-8:30 Sat 9:30-8:30 Sun 10-6
1,Germaine Morris,112,852,Everett,23 Mystic View Rd,Everett,MA,02149,(617) 387-1595,,Mon-Sat 10-6 Sun 11-6
1,Germaine Morris,112,861,Burlington,91 Middlesex Tpk,Burlington,MA,01803,(781) 270-0444,,Mon-Sat 10-8:30 Sun 12-6
1,Leah Mason,201,47,Bailey's,5524 Leesburg Pike,Falls Church,VA,22041,(703) 671-2445,(703) 671-0299,Mon-Fri 9:30-9 Sat 9:30-8:30 Sun 10-7
1,Leah Mason,201,48,Rockville,1803 Rockville Pike,Rockville,MD,20852,(301) 231-7900,(301) 231-7595,Mon-Sat 10-8:30 Sun 10-7
1,Leah Mason,201,52,Gaithersburg,300 N Frederick Ave,Gaithersburg,MD,20877,(301) 527-1282,(301) 527-1358,Mon-Fri 9:30-9 Sat 9-8:30 Sun 10-6
1,Leah Mason,201,55,Tysons,1927 Old Gallows Rd,Vienna,VA,22182,(703) 883-2999,(703) 883-2004,Mon-Sat 10-9 Sun 11-6
1,Leah Mason,201,58,Waldorf,3144 Crain Hwy,Waldorf,MD,20603,(301) 638-7110,(301) 638-7113,Mon-Fri 9:30-9 Sat 10-9 Sun 10-7
1,Leah Mason,201,66,Columbia,6250 Columbia Crossing Circle,Columbia,MD,21045,(410) 872-0440,(410) 872-0405,Mon-Fri 9:30-8:30 Sat 9:30-9 Sun 10-6
1,Leah Mason,201,69,Laurel,14815 Baltimore Ave,Laurel,MD,20707,(240) 568-9100,(240) 568-9102,Mon-Sat 10-6 Sun 11-6
1,Leah Mason,201,143,Arundel,7069 -B Arundel Mills Boulevard,Hanover,MD,21076,(443) 755-9445,(443) 755-1645,Mon-Sat 10-8:30 Sun 11-6
1,Leah Mason,201,437,Glen Burnie,6731 Ritchie Hwy.,Glen Burnie,MD,21061,(410) 553-0687,(410) 760-3109,Mon-Sat 9:30-8 Sun 10-6
1,Leah Mason,201,514,Catonsville,6026 Baltimore National Pike,Catonsville,MD,21228,(410) 744-6197,(410) 744-6243,Mon-Fri 10-9 Sat 10-8:30 Sun 10-6
1,Leah Mason,201,515,Crofton,2385 Brandermill Blvd,Gambrills,MD,21054,(410) 721-5987,(410) 721-5698,Mon-Fri 10-8:30 Sat 10-9 Sun 10-7
1,Leah Mason,201,527,Frederick,5525 Urbana Pike,Frederick,MD,21704,(301) 663-7821,(301) 663-7830,Mon-Fri 9:30-8:30 Sat 9-8:30 Sun 10-6
1,Leah Mason,201,531,Westminster,625 Baltimore Blvd,Westminster,MD,21157,(410) 848-7621,(410) 848-7847,Mon-Sat 10-8:30 Sun 10-7
1,Leah Mason,201,565,Hagerstown,1730 Massey Boulevard,Hagerstown,MD,21740,(301) 790-0635,(301) 790-0672,Mon-Sat 9:30-8:30 Sun 10-6
1,Leah Mason,201,717,Alexandria,3725-B Richmond Hwy,Alexandria,VA,22305,(703) 535-6500,(703) 535-8620,Mon-Sat 10-9 Sun 11-7
1,Leah Mason,201,720,Annapolis,2315 Forest Dr,Annapolis,MD,21401,(410) 571-9838,(410) 571-9842,Mon-Sat 10-8:30 Sun 10-6
1,Leah Mason,201,769,Capitol Heights,9101 Alaking Court,Capitol Heights,MD,20743,(301) 336-1450,,Mon-Fri 10-9 Sat 9:30-9 Sun 10-7
1,Leah Mason,201,807,Eldersburg,6400 Ridge Rd,Sykesville,MD,21784,(410) 795-2527,,Mon-Sat 10-8 Sun 11-6
1,Leah Mason,201,851,Silver Spring,10 West University Blvd,Silver Spring,MD,20901,(301) 593-0595,,Mon-Fri 10-9 Sat 10-8:30 Sun 11-6
1,Leah Mason,201,862,Dakota Crossing,2460 Market St NE,Washington,DC,20018,(202) 269-0809,,Mon-Sat 10-9 Sun 11-7
1,Erin Hicks,203,160,Fayetteville,5075 Morganton Rd.,Fayetteville,NC,28314,(910) 864-3013,(910) 864-3448,Mon-Fri 9:30-8:30 Sat 9-8:30 Sun 10-6
1,Erin Hicks,203,189,Durham,6917 Fayetteville Rd,Durham,NC,27713,(919) 572-1754,(919) 572-1943,Mon-Fri 10-9 Sat 10-8:30 Sun 10-7
1,Erin Hicks,203,196,Brier Creek,8421 Brier Creek Pkwy,Raleigh,NC,27617,(919) 484-1243,(919) 484-1332,Mon-Fri 10-8:30 Sat 9:30-8:30 Sun 10-7
1,Erin Hicks,203,212,Matthews,1908 Matthews Township Pkwy,Matthews,NC,28105,(704) 845-4661,(704) 845-5529,Mon-Sat 9:30-8:30 Sun 11-7
1,Erin Hicks,203,253,Johnson City,3120 Peoples St,Johnson City,TN,37604,(423) 282-2507,(423) 282-5186,Mon-Fri 9:30-8:30 Sat 9-9 Sun 10-7
1,Erin Hicks,203,256,Cary,2121 Walnut Street,Cary,NC,27518,(919) 233-0427,(919) 233-2204,Mon-Fri 10-9 Sat 10-8:30 Sun 10-6
1,Erin Hicks,203,291,Wake Forest,411 E. Six Forks Rd.,Raleigh,NC,27609,(919) 828-8673,(919) 828-8462,Mon-Fri 10-9 Sat 10-8 Sun 10-7
1,Erin Hicks,203,347,Pineville,9620 Pineville-Matthew Rd,Pineville,NC,28134,(704) 540-2841,(704) 542-8678,Mon-Sat 9:30-9 Sat 9:30-8:30 Sun 10-7
1,Erin Hicks,203,379,Northlake,9815 Northlake Center Pkwy,Charlotte,NC,28216,(704) 921-4599,(704) 921-4039,Mon-Sat 9:30-9 Sun 10-7
1,Erin Hicks,203,392,Burlington,1348 Java Lane,Burlington,NC,27215,(336) 584-9607,(336) 584-9598,Mon-Fri 9:30-8:30 Sat 9:30-8 Sun 11-6
1,Erin Hicks,203,487,Greenville,701 SE Greenville Blvd.,Greenville,NC,27858,(252) 355-4528,(252) 355-4194,Mon-Sat 9:30-8:30 Sun 10-6
1,Erin Hicks,203,563,Charlotte,243 S. Kings Drive,Charlotte,NC,28204,(704) 333-2826,(704) 333-2809,Mon-Fri 10-9 Sat 9:30-8:30 Sun 10-7
1,Erin Hicks,203,671,Jacksonville,1345 Western Blvd,Jacksonville,NC,28546,(910) 989-0206,(910) 989-0207,Mon-Sat 10-8:30 Sun 10-6
1,Erin Hicks,203,737,Mooresville,489 River Highway,Mooresville,NC,28117,(704) 360-1013,(704) 660-1378,Mon-Fri 9:30-8:30 Sat 9:30-9 Sun 10-7
1,Erin Hicks,203,770,Monroe,2319 West Roosevelt Blvd.,Monroe,NC,28110,(704) 225-0597,(704) 225-1805,Mon-Fri 10-9 Sat 9:30-8:30 Sun 12-6
1,Erin Hicks,203,781,Fuquay Varina,1241 North Main Street,Fuquay Varina,NC,27526,(919) 567-0088,(919) 567-0097,Mon-Fri 10-8:30 Sat 10-8 Sun 11-6
1,Erin Hicks,203,785,Goldsboro,501 N. Berkley Drive,Goldsboro,NC,27534,(919) 778-7980,,Mon-Sat 10-8:30 Sun 12-6
1,Erin Hicks,203,826,Capital Blvd,5505 Capital Blvd,Raleigh,NC,27616,(919) 713-2168,,Mon-Sat 10-8:30 Sun 11-6
1,Erin Hicks,203,840,Concord,8046 Concord Mills Blvd,Concord,NC,28027,(704) 971-1646,(704) 971-5212,Mon-Sat 9:30-9 Sun 11-6
1,Erin Hicks,203,845,Wake Forest,12616 Capital Blvd,Wake Forest,NC,27587,(919) 569-0015,,Mon-Fri 10-8:30 Sat 9:30-8:30 Sun 11-6
1,Erin Hicks,203,850,Sanford,3100 South Horner Blvd,Sanford,NC,27332,(919) 718-0844,,Mon-Fri 10-8 Sat 10-8:30 Sun 10-6
1,Erin Hicks,203,880,Rock Hill,1969 Canterbury Glen Lane,Rock Hill,SC,29730,(803) 329-9950,,Mon-Fri 10-8:30 Sat 10-8 Sun 11-7
1,Mike Bruner,402,1,57th St,139 E 57th St,New York,NY,10022,(212) 371-3850,(212) 223-4924,Mon-Fri 10-8 Sat 10-7 Sun 11-6
1,Mike Bruner,402,2,72nd St,2086-A Broadway,New York,NY,10023,(212) 580-7620,(212) 724-1346,Mon-Fri 9:30-9 Sat 10-8 Sun 11-6
1,Mike Bruner,402,3,East 86th St,244 E 86th Street,New York,NY,10028,(212) 585-3091,(212) 585-3096,Mon-Fri 10-8:30 Sat 10-9 Sun 11-6
1,Mike Bruner,402,7,23rd St Park Ave,100 E 23rd St (on Park South),New York,NY,10010,(212) 777-0060,(212) 260-4602,Mon-Fri 10-8 Sat 11-6 Sun 12-7
1,Mike Bruner,402,9,92nd St,2478 Broadway,New York,NY,10025,(212) 724-2430,(212) 875-1002,Mon-Fri 10-8 Sat 10-7 Sun 11-6
1,Mike Bruner,402,11,Astor Pl,740 Broadway,New York,NY,10003,(212) 995-8716,(212) 995-1235,Mon-Fri 9:30-8:30 Sat 10-8 Sun 11-6
1,Mike Bruner,402,14,110th St,2841 Broadway,New York,NY,10025,(212) 316-4681,(212) 665-2719,Mon-Fri 10-8 Sat 10-7 Sun 11-6
1,Mike Bruner,402,195,5th &  36th St,385 Fifth Ave.,New York,NY,10016,(212) 532-4534,(212) 532-4812,Mon-Fri 10-8 Sat 10-7 Sun 11-7
1,Mike Bruner,402,202,23rd & 8th,257 8th Ave,New York,NY,10011,(212) 243-0086,(212) 243-0671,Mon-Fri 9:30-9 Sat 9:30-8:30 Sun 11-6
1,Mike Bruner,402,350,8th Ave,931 8th Ave,New York,NY,10019,(212) 582-8965,(212) 582-8978,Mon-Sat 10-9 Sun 11-6
1,Mike Bruner,402,423,655 6TH Ave,655 6th Ave,New York,NY,10010,(212) 647-7093,(212) 366-4935,Mon-Sat 10-8:30 Sun 11-6
1,Mike Bruner,402,721,181st St (Relo 6/27/16),661 W 181st St,New York,NY,10033,(212) 927-2849,(212) 927-3341,Mon-Fri 10-8:30 Sat 10-8 Sun 11-6
1,Mike Bruner,402,766,Chambers,108 Chambers Street,New York,NY,10007,(917) 363-9256,,Mon-Sat 10-5 Sun Closed
1,Mike Bruner,402,894,Hoboken,312 Washington St,Hoboken,NJ,07030,(201) 420-8689,,Mon-Sat 10-8 Sun 11-6
1,Joseph Patalano,403,24,Forest Hills,107-60 Queens Blvd,Forest Hills,NY,11375,(718) 520-8147,(718) 520-2960,Mon-Sat 9:30-8:30 Sun 10-7
1,Joseph Patalano,403,26,Jackson Hgts,81-27 37th Ave,Jackson Heights,NY,11372,(718) 396-2822,(718) 396-2835,Mon-Fri 9:30-9 Sat 9:30-8:30 Sun 10-7
1,Joseph Patalano,403,28,Richmond,2535 Richmond Ave,Staten Island,NY,10314,(718) 477-1967,(718) 477-1969,Mon-Fri 9:30-9 Sat 9:30-8:30 Sun 9:30-7
1,Joseph Patalano,403,31,Bayridge,469 86th St,Brooklyn,NY,11209,(718) 491-9768,(718) 491-0021,Mon-Fri 10-8:30 Sat 9:30-8:30 Sun 10-7
1,Joseph Patalano,403,36,Court St,32 Court St,Brooklyn,NY,11201,(718) 596-0466,(718) 596-0653,Mon-Fri 9:30-8 Sat 9:30-6 Sun 11-6
1,Joseph Patalano,403,85,Steinway,31-26 Steinway St,Astoria,NY,11103,(718) 545-0444,(718) 545-6266,Mon-Fri 10-8:30 Sat 9:30-7 Sun 10-7
1,Joseph Patalano,403,241,Atlantic & 4th Ave,12 4th Ave,Brooklyn,NY,11217,(718) 858-8314,(718) 858-8612,Mon-Fri 9:30-8:30 Sat 9:30-9 Sun 10-7
1,Joseph Patalano,403,421,Pelham Manor,818 Pelham Parkway,Pelham,NY,10803,(914) 654-4812,(914) 654-4814,Mon-Sat 9:30-9 Sun 10-7
1,Joseph Patalano,403,512,Fordham Rd. (Bronx),311 East Fordham Rd,Bronx,NY,10458,(718) 733-0934,(718) 733-0945,Mon-Sat 9:30-8:30 Sun 10-6
1,Joseph Patalano,403,552,Bayside,205-04 Northern Blvd,Bayside,NY,11361,(718) 225-3209,(718) 225-3415,Mon-Sat 9:30-9 Sun 10-7
1,Joseph Patalano,403,555,Canarsie,8929 Avenue D,Brooklyn,NY,11236,(718) 629-2076,(718) 629-2175,Mon-Fri 9:30-9 Sat 9-9 Sun 10-7
1,Joseph Patalano,403,587,Rego Park,61-35 Junction Boulevard,Rego Park,NY,11374,(718) 271-7314,(718) 271-7387,Mon-Fri 10-8:30 Sat 9:30-9 Sun 11-7
1,Joseph Patalano,403,639,Kings Highway,1326 Kings Highway,Brooklyn,NY,11229,(718) 382-2535,(718) 382-2536,Mon-Sat 10-8:30 Sun 11-6
1,Joseph Patalano,403,680,Hyland Blvd,2602 Hylan Blvd,Staten Island,NY,10306,(718) 351-5827,,Mon-Fri 9:30-9 Sat 9:30-8 Sun 10-6
1,Joseph Patalano,403,732,Caesars Bay,1628 Shore Parkway,Brooklyn,NY,11214,(718) 266-0690,(718) 266-0785,Mon-Sat 10-8:30 Sun 11-6
1,Joseph Patalano,403,767,Bensonhurst,2005 86th Street,Brooklyn,NY,11214,(718) 373-2392,(718) 373-2393,Mon-Fri 10:30-7:30 Sat 11-6:30 Sun 12-6
1,Joseph Patalano,403,810,Flatbush-Triangle,1596 Flatbush Ave,Brooklyn,NY,11210,(718) 859-0837,(718) 859-0898,Mon-Fri 10-8 Sat 11-7 Sun 10-6
1,Joseph Patalano,403,812,Riverdale,5510 Broadway,Bronx,NY,10463,(718) 884-2984,(718) 884-2984,Mon-Fri 10-9 Sat 10-8:30 Sun 10-7
1,Zhila Casas,404,51,Fairfax,11015-B Fairfax Blvd,Fairfax,VA,22030,(703) 352-4925,(703) 352-4915,Mon-Sat 10-9 Sun 10-6
1,Zhila Casas,404,63,Manassas,10944 Bulloch Dr,Manassas,VA,20109,(703) 392-6950,(703) 392-8241,Mon-Fri 9:30-8:30 Sat 10-9 Sun 11-6
1,Zhila Casas,404,64,Fredericksburg,1471 Carl D. Silver Pkwy,Fredericksburg,VA,22401,(540) 548-2295,(540) 548-2536,Mon-Fri 9:30-9 Sat 9:30-8:30 Sun 10-7
1,Zhila Casas,404,109,Sterling,45450 Dulles Crossing Plaza,Sterling,VA,20166,(571) 434-0624,(571) 434-0694,Mon-Fri 10-9 Sat 10-8:30 Sun 10-6
3,Teresa Schroer,304,183,La Mesa,5500 Grossmont Center Dr,La Mesa,CA,91942,(619) 667-3590,(619) 667-5366,Mon-Sat 9:30-8:30 Sun 10-7
3,Teresa Schroer,304,322,Long Beach,5600 E 7th St,Long Beach,CA,90804,(562) 494-3804,(562) 498-9107,Mon-Fri 9:30-9 Sat 9:30-8:30 Sun 10-7
3,Teresa Schroer,304,341,Encinitas,110 N El Camino Real,Encinitas,CA,92024,(760) 753-1956,(760) 753-7589,Mon-Sat 10-8 Sun 11-6
3,Teresa Schroer,304,359,Mission Viejo,28211 Marguerite Parkway,Mission Viejo,CA,92692,(949) 347-1915,(949) 347-1198,Mon-Sat 10-8 Sun 11-6
3,Teresa Schroer,304,612,Orange,1300 N. Tustin Ave,Orange,CA,92867,(714) 771-2205,(714) 771-2315,Mon-Sat 9:30-8 Sun 11-7
3,Teresa Schroer,304,634,San Ysidro,3975 Camino De La Plaza,San Ysidro,CA,92173,(619) 690-9211,(619) 690-9267,Mon-Sat 10-8 Sun 12-6
3,Teresa Schroer,304,651,El Centro,500 E. Danenberg Drive,El Centro,CA,92243,(760) 353-1282,(760) 353-1292,Mon-Fri 10-9 Sat 10-8:30 Sun 10-7
3,Teresa Schroer,304,660,Balboa-Mesa,5575 Balboa Ave,San Diego,CA,92111,(858) 694-0346,(858) 694-0352,Mon-Fri 10-9 Sat 9:30-9 Sun 10-6
3,Teresa Schroer,304,672,Irvine,13662 Jamboree Road,Irvine,CA,92602,(714) 734-3684,(714) 734-3721,Mon-Sat 10-8 Sun 11-7
3,Kahren Bellamy,305,167,Fresno,7641 N. Blackstone Ave,Fresno,CA,93720,(559) 436-8204,(559) 436-8258,Mon-Fri 9:30-9 Sat 9:30-8:30 Sun 10-7
3,Kahren Bellamy,305,177,San Jose,3150 Stevens Creek Blvd,San Jose,CA,95117,(408) 247-3498,(408) 247-0210,Mon-Sat 10-8 Sun 10-6
3,Kahren Bellamy,305,190,Gilroy,6965 Camino Arroyo Circle,Gilroy,CA,95020,(408) 848-0327,(408) 848-6108,Mon-Sat 10-7 Sun 10-6
3,Kahren Bellamy,305,237,Blossom Hill,5592-A Santa Teresa Blvd,San Jose,CA,95123,(408) 629-3278,(408) 629-5182,Mon-Sat 10-9 Sun 10-7
3,Kahren Bellamy,305,240,Seaside,1962 Del Monte Blvd,Seaside,CA,93955,(831) 392-0225,(831) 392-0696,Mon-Fri 9:30-8:30 Sat 9:30-8 Sun 10-7
3,Kahren Bellamy,305,279,Visalia,4009 S. Mooney Blvd,Visalia,CA,93277,(559) 732-5936,(559) 732-5939,Mon-Fri 9:30-9 Sat 9:30-8:30 Sun 10-7
3,Kahren Bellamy,305,299,Modesto,3801 Pelandale Ave,Modesto,CA,95356,(209) 545-9138,(209) 545-9112,Mon-Sat 9:30-8 Sun 10-6
3,Kahren Bellamy,305,380,Bakersfield,5300 Stockdale Highway,Bakersfield,CA,93309,(661) 634-9789,(661) 336-0710,Mon-Sat 9:30-9 Sun 10-7
3,Kahren Bellamy,305,525,Sunnyvale,126 East El Camino Real,Sunnyvale,CA,94087,(408) 739-2084,(408) 739-2861,Mon-Sat 10-9 Sun 10-7
3,Kahren Bellamy,305,576,Fremont,43425 Christy Street,Fremont,CA,94538,(510) 661-9815,(510) 661-9523,Mon-Sat 10-8 Sun 11-7
3,Kahren Bellamy,305,595,Colma,115 Colma Blvd,Daly City,CA,94014,(650) 756-2257,(650) 756-2274,Mon-Fri 9:30-9 Sat 9:30-8:30 Sun 11-6
3,Kahren Bellamy,305,617,Redwood City,1200 El Camino Real,Redwood City,CA,94063,(650) 701-0273,(650) 701-0627,Mon-Fri 10-9 Sat 10-8:30 Sun 10-7
3,Kahren Bellamy,305,625,Clovis,1205 Herndon Ave,Clovis,CA,93612,(559) 324-8606,(559) 324-8789,Mon-Fri 9:30-9 Sat 9:30-8:30 Sun 11-7
3,Kahren Bellamy,305,630,Dublin,3734 Fallon Road,Dublin,CA,94568,(925) 875-9136,(925) 875-9138,Mon-Fri 10-9 Sat 10-8 Sun 11-6
3,Kahren Bellamy,305,642,Potrero,2300 16th Street,San Francisco,CA,94103,(415) 255-9544,(415) 255-9546,Mon-Sat 10-6 Sun 11-6
3,Kahren Bellamy,305,673,Salinas,1974 N. Main Street,Salinas,CA,93906,(831) 449-2230,(831) 449-2218,Mon-Sat 10-9 Sun 10-6
3,Denise Frey,308,362,Pearl Ridge,98-199 Kamehameha Highway,Aiea,HI,96701,(808) 487-6180,(808) 487-6182,Mon-Fri 9:30-9 Sat 9-9 Sun 10-7
3,Denise Frey,308,369,Kaneohe,46-047 Kamehameha Highway,Kaneohe,HI,96744,(808) 235-8705,(808) 235-8707,Mon-Sat 9:30-8:30 Sun 10-6
3,Denise Frey,308,397,Lahaina,305 Keawe Street,Lahaina,HI,96761,(808) 667-5834,(808) 667-5837,Mon-Sat 9:30-8 Sun 10-6
3,Denise Frey,308,400,Kona,74-5452 Makala Blvd.,Kailua-Kona,HI,96740,(808) 334-1501,(808) 334-1504,Mon-Fri 9-9 Sat 9:30-8:30 Sun 9:30-6
3,Denise Frey,308,474,Kapolei,4480 Kapolei Pkway,Kapolei,HI,96707,(808) 674-9629,(808) 674-9637,Mon-Fri 9:30-9 Sat 9:30-8 Sun 9:30-7
3,Denise Frey,308,740,Hilo,303 Makaala St,Hilo,HI,96720,(808) 935-7582,(808) 935-4838,Mon-Sat 9:30-8 Sun 11-6
3,Denise Frey,308,881,Honolulu,1450 Ala Moana Blvd.,Honolulu,HI,96814,(808) 949-5424,,Mon-Fri 9:30-9 Sat 9-9 Sun 10-7
3,Jim Schmidt,309,153,Pinole,1471 Fitzgerald Dr.,Pinole,CA,94564,(510) 223-4681,(510) 223-4692,Mon-Fri 10-9 Sat 9:30-8 Sun 10-6
3,Jim Schmidt,309,161,Larkspur,2062 Redwood Highway,Greenbrae,CA,94904,(415) 924-2141,(415) 924-7588,Mon-Fri 9:30-9 Sat 10-8:30 Sun 10-7
3,Jim Schmidt,309,166,Antioch,5779 Lone Tree Way,Antioch,CA,94531,(925) 706-8982,(925) 706-9531,Mon-Fri 9:30-9 Sat 9:30-8:30 Sun 10-6
3,Jim Schmidt,309,182,Citrus Heights,6147 Sunrise Blvd.,Citrus Heights,CA,95610,(916) 725-1616,(916) 725-4643,Mon-Fri 9:30-9 Sat 10-8:30 Sun 10-6
3,Jim Schmidt,309,308,Elk Grove,8255 Laguna Blvd,Elk Grove,CA,95758,(916) 684-0099,(916) 684-0248,Mon-Fri 9:30-8:30 Sat 9:30-8 Sun 10-7
3,Jim Schmidt,309,357,Reno,6135 S Virginia St,Reno,NV,89502,(775) 852-7158,(775) 852-4391,Mon-Fri 9:30-8:30 Sat 9-8:30 Sun 10-7
3,Jim Schmidt,309,366,Roseville,1230 Roseville Pkwy,Roseville,CA,95678,(916) 771-5559,(916) 771-5573,Mon-Fri 9:30-9 Sat 9:30-8 Sun 10-6
3,Jim Schmidt,309,524,Napa,1735-A Trancas Street,Napa,CA,94558,(707) 254-9060,(707) 254-7719,Mon-Fri 9:30-8:30 Sat 10-8 Sun 11-6
3,Jim Schmidt,309,539,"Arden Way, Sacremento",1740 Arden Way,Sacramento,CA,95815,(916) 921-5643,(916) 921-1416,Mon-Fri 10-9 Sat 10-8:30 Sun 10-6
3,Jim Schmidt,309,559,Redding,1315  Churn Creek Rd,Redding,CA,96003,(530) 223-3094,(530) 223-1435,Mon-Sat 9:30-9 Sun 10-6
3,Jim Schmidt,309,602,Medford,61 Rossanley Drive,Medford,OR,97501,(541) 779-4936,(541) 779-2136,Mon-Fri 9:30-8:30 Sat 9:30-8 Sun 10-6
3,Jim Schmidt,309,638,Pleasant Hill,2152 Contra Costa Blvd,Pleasant Hill,CA,94523,(925) 691-5154,(925) 691-5159,Mon-Sat 9:30-8:30 Sun 10-6
3,Jim Schmidt,309,645,Vacaville,1615 E Monte Vista Ave,Vacaville,CA,95688,(707) 452-0934,(707) 452-0968,Mon-Sat 10-8:30 Sun 10-7
3,Danielle Watts,310,210,Metro Towne Ctr,3033 W. Peoria Ave,Phoenix,AZ,85029,(602) 674-3409,(602) 674-3411,Mon-Sat 9:30-8 Sun 10-6
3,Danielle Watts,310,229,Avondale,10020 W McDowell Rd,Avondale,AZ,85392,(623) 478-0898,(623) 478-8037,Mon-Sat 9:30-8:30 Sun 10-6
3,Danielle Watts,310,275,Phoenix/Camelback,1935 E. Camelback Rd,Phoenix,AZ,85016,(602) 277-0660,(602) 277-1959,Mon-Sat 9:30-8 Sun 10-7
3,Danielle Watts,310,312,Glendale,7708 W Bell Rd,Glendale,AZ,85308,(623) 979-7387,(623) 979-9041,Mon-Sat 9:30-8 Sun 10-6
3,Danielle Watts,310,442,Zaragosa,1921 Zaragosa Rd,El Paso,TX,79938,(915) 855-3791,(915) 855-3891,Mon-Sat 9:30-8:30 Sun 10-7
3,Danielle Watts,310,454,Eagle Ranch,9935 Coors Blvd,Albuquerque,NM,87114,(505) 897-1725,(505) 897-5083,Mon-Sat 9:30-6 Sun 10-6
3,Danielle Watts,310,461,Albuquerque,6010 Menaul Blvd NE,Albuquerque,NM,87110,(505) 872-0086,(505) 872-0542,Mon-Sat 9:30-8:30 Sun 10-7
3,Danielle Watts,310,466,Mesa (Val Vista),1740 S. Val Vista Drive,Mesa,AZ,85204,(480) 545-2785,(480) 545-6724,Mon-Sat 9:30-8 Sun 10-7
3,Danielle Watts,310,528,Sunland,655 Sunland Park Dr,El Paso,TX,79912,(915) 584-4995,(915) 584-5264,Mon-Sat 9:30-8:30 Sun 11-7
3,Danielle Watts,310,571,N. Scottsdale,15811 N. Frank Lloyd Wright,Scottsdale,AZ,85260,(480) 614-5722,(480) 614-5724,Mon-Sat 9:30-8 Sun 10-6
3,Danielle Watts,310,579,Santa Fe,3538 Zafarano Drive,Santa Fe,NM,87507,(505) 438-1184,(505) 438-1542,Mon-Sat 9:30-8 Sun 11-6
3,Danielle Watts,310,597,Surprise,13714 W. Bell Road,Surprise,AZ,85374,(623) 214-2156,(623) 214-2184,Mon-Sat 9:30-8 Sun 10-6
3,Danielle Watts,310,598,Tucson (Broadway),5545 E. Broadway Blvd,Tucson,AZ,85711,(520) 777-5476,(520) 777-4392,Mon-Sat 9:30-8 Sun 10-6
3,Danielle Watts,310,616,El Paso (Hawkins),8889 Gateway,El Paso,TX,79925,(915) 599-8587,(915) 599-8611,Mon-Sat 10-8:30 Sun 12-7
3,Danielle Watts,310,633,Tucson (Oracle),4329 N Oracle Road,Tucson,AZ,85705,(520) 293-7150,(520) 293-7154,Mon-Sat 10-8 Sun 11-7
3,Danielle Watts,310,777,Ahwatukee,4910 East Ray Road,Phoenix,AZ,85044,(480) 753-4775,(480) 753-7019,Mon-Sat 9:30-8 Sun 10-6
3,Danielle Watts,310,821,Yuma,1418 S Yuma Palms Pkwy,Yuma,AZ,85365,(928) 782-1052,(928) 782-1730,Mon-Sat 11-8 Sun 11-6
3,David Ho,311,162,Brea,299 South Randolph Street,Brea,CA,92821,(714) 257-9971,(714) 257-9962,Mon-Fri 9:30-8:30 Sat 9:30-9 Sun 10-7
3,David Ho,311,165,Temecula,40758 Winchester Rd,Temecula,CA,92591,(951) 694-3285,(951) 694-3289,Mon-Fri 9:30-9 Sat 9:30-8:30 Sun 9:30-7
3,David Ho,311,175,Pasadena,181 South Lake Ave.,Pasadena,CA,91101,(626) 405-0209,(626) 405-0520,Mon-Sat 10-8:30 Sun 10-7
3,David Ho,311,179,Redlands,27310 Lugonia Ave,Redlands,CA,92374,(909) 793-9520,(909) 793-9537,Mon-Fri 9:30-9 Sat 9:30-8:30 Sun 10-7
3,David Ho,311,194,Rancho Cucamonga,12181 Foothill Blvd,Rancho Cucamonga,CA,91739,(909) 646-7146,(909) 646-7176,Mon-Fri 9:30-9 Sat 9-9 Sun 10-7
3,David Ho,311,216,Glendale,401 North Glendale Ave,Glendale,CA,91206,(818) 240-3679,(818) 240-2643,Mon-Fri 9:30-9 Sat 9-8:30 Sun 10-7
3,David Ho,311,370,West Covina,235 N. Citrus St,West Covina,CA,91791,(626) 331-7125,(626) 332-1391,Mon-Sat 9:30-9 Sun 10-7
3,David Ho,311,395,Menifee,30120 Haun Road,Menifee,CA,92584,(951) 672-4097,(951) 672-4103,Mon-Fri 9:30-8:30 Sat 9:30-9 Sun 11-6
3,David Ho,311,567,Torrance,19510 Hawthorne Blvd,Torrance,CA,90503,(310) 921-3574,(310) 921-3763,Mon-Fri 9:30-8:30 Sat 9:30-8 Sun 11-6
3,David Ho,311,606,Lakewood,4327 Candlewood Street,Lakewood,CA,90712,(562) 531-1580,(562) 531-1627,Mon-Fri 9:30-9 Sat 9:30-8 Sun 10-6
3,David Ho,311,609,La Quinta,78-692 Highway 111,La Quinta,CA,92253,(760) 564-5987,(760) 777-1378,Mon-Sat 9:30-8:30 Sun 11-6
3,David Ho,311,653,South Gate,4741 Firestone Blvd,South Gate,CA,90280,(323) 567-2687,(323) 567-2706,Mon-Sat 10-9 Sun 10-7
3,David Ho,311,683,Chino,4005 Grand Ave,Chino,CA,91710,(909) 590-7278,(909) 590-7309,Mon-Fri 10-9 Sat 10-8:30 Sun 11-7
3,David Ho,311,742,Downey,12136 Lakewood Blvd,Downey,CA,90242,(562) 803-7854,(562) 803-7856,Mon-Sat 10-9 Sun 10-7
3,David Ho,311,761,Riverside,3660 Central Ave,Riverside,CA,92506,(951) 684-4970,(951) 683-4028,Mon-Fri 9:30-9 Sat 9-8:30 Sun 10-7
3,David Ho,311,779,La Verne,2298 Foothill Blvd,La Verne,CA,91750,(909) 596-3615,(909) 596-3809,Mon-Sat 10-8:30 Sun 10-7
3,David Ho,311,804,Moreno Valley,2692 Canyon Springs Pkwy,Riverside,CA,92507,(951) 653-3270,(951) 656-4607,Mon-Fri 10-9 Sat 10-8:30 Sun 10-6
3,David Ho,311,848,East Pasadena,3535 E Foothill Blvd.,Pasadena,CA,91107,(626) 351-9560,(626) 351-9581,Mon-Sat 10-8:30 Sun 11-7
3,Jeff Line,501,500,Everett,1510 SE Everett Mall Way,Everett,WA,98208,(425) 355-0560,(425) 355-0561,Mon-Sat 9:30-8 Sun 10-7
3,Jeff Line,501,1002,North Seattle,13500 Aurora Avenue N,Seattle,WA,98133,(206) 365-5240,,Mon-Sat 9:30-8 Sun 11-6
3,Jeff Line,501,1003,Lynnwood - S,19925 44th Ave West,Lynnwood,WA,98036,(425) 775-0805,,Mon-Sat 9-7:30 Sun 10-7
3,Jeff Line,501,1005,Kenmore,6806 NE 175th Street,Kenmore,WA,98028,(425) 402-8822,,Mon-Fri 9:30-8:30 Sat 10-9 Sun 10-6
3,Jeff Line,501,1006,Bellingham,1300 Ellis Street,Bellingham,WA,98225,(360) 676-9922,,Mon-Fri 10-7 Sat 9:30-7 Sun 11-7
3,Jeff Line,501,1008,Burlington,1761 S Burlington Blvd,Burlington,WA,98233,(360) 757-4949,,Mon-Fri 9-8:30 Sat 9:30-8:30 Sun 10-7
3,Jeff Line,501,1009,Bellevue - S,14733 NE 8th Street,Bellevue,WA,98007,(425) 957-0787,,Mon-Fri 9:30-9 Sat 9-8:30 Sun 11-7
3,Jeff Line,501,1012,Everett - S,4031 Colby Avenue,Everett,WA,98201,(425) 293-0373,,Mon-Fri 9:30-9 Sat 9-8:30 Sun 10-6
3,Jeff Line,501,1017,West Seattle,6451 Fauntleroy Way SW,Seattle,WA,98136,(206) 838-5981,,Mon-Sat 10-7 Sun 11-6
3,Jeff Line,501,1020,Interbay,1154 Elliott Avenue West,Seattle,WA,98119,(206) 838-5980,,Mon-Fri 10-8 Sat 9:30-8 Sun 11-6
3,Jeff Line,501,1025,Redmond - S,17980 Redmond Way,Redmond,WA,98052,(425) 641-0241,,Mon-Sat 10-6 Sun 11-6
3,Jeff Line,504,249,Tanasbourne,2711 NW Towne Ctr Dr,Beaverton,OR,97006,(503) 614-8517,(503) 614-8915,Mon-Sat 10-8 Sun 10-6
3,Jeff Line,504,353,West Olympia,1111 Cooper Point Road SW,Olympia,WA,98502,(360) 357-0798,(360) 357-1328,Mon-Sat 9-8:30 Sun 10-6
3,Jeff Line,504,783,Salem,498 Lancaster Drive NE,Salem,OR,97301,(503) 364-9181,(503) 364-9576,Mon-Sat 10-8 Sun 12-6
3,Jeff Line,504,1007,East Olympia,4104 Martin Way E,Olympia,WA,98516,(360) 438-6963,,Mon-Sat 9-8:30 Sun 10-7
3,Jeff Line,504,1010,Lakewood,10011 Bridgeport Way SW,Lakewood,WA,98499,(253) 584-7300,,Mon-Fri 9:30-9 Sat 9:30-8:30 Sun 11-7
3,Jeff Line,504,1011,Renton,707 Rainer Avenue S,Renton,WA,98057,(425) 226-2112,,Mon-Fri 9:30-9 Sat 9:30-8:30 Sun 10-7
3,Jeff Line,504,1013,Puyallup,4307 S Meridian Street,Puyallup,WA,98373,(253) 604-0700,,Mon-Fri 9-8:30 Sat 9-9 Sun 10-7
3,Jeff Line,504,1016,Federal Way,1401 S 348th Street,Federal Way,WA,98003,(253) 529-0636,,Mon-Fri 9:30-8:30 Sat 10-8:30 Sun 11-7
3,Jeff Line,504,1018,Bremerton,3324 Wheaton Way,Bremerton,WA,98310,(360) 782-0909,,Mon-Sat 9:30-7 Sun 11-6
3,Jeff Line,504,1021,Tacoma - S,5902 6th Avenue,Tacoma,WA,98406,(253) 565-1028,,Mon-Fri 9:30-9 Sat 9-8 Sun 10-6
3,Jeff Line,504,1027,Eugene,391 Coburg Road,Eugene,OR,97401,(541) 685-7285,,Mon-Fri 9:30-8:30 Sat 9:30-8 Sun 11-6
3,Jeff Line,504,1028,Cascade Park,305 SE Chkalov Drive,Vancouver,WA,98683,(360) 418-7090,,Mon-Fri 9-8:30 Sat 9:30-9 Sun 10-7
3,Jeff Line,504,1029,Beaverton,2612 SW Cedar Hills Boulevard,Beaverton,OR,97005,(971) 205-5726,,Mon-Sat 9:30-8 Sun 11-7
3,Jeff Line,504,1030,Burien,15870 1st Avenue South,Seattle,WA,98148,(855) 715-8530,,Mon-Fri 9:30-9 Sat 9-8 Sun 10-7
3,Jeff Line,504,1031,Maple Valley,26710 Maple Valley-Black Diamond Rd,Maple Valley,WA,98038,(855) 235-9431,,Mon-Sat 9-8 Sun 10-6
3,Jeff Line,504,1032,Hazel Dell,320 NE 78th Street,Vancouver,WA,98665,(855) 235-9432,,Mon-Sat 9:30-8 Sun 10-6
3,Jeff Line,504,1033,Issaquah,755 NW Gilman Blvd,Issaquah,WA,98027,(425) 301-9582,,Mon-Sat 10-8 Sun 11-6
3,Karen Foster,506,242,Henderson-Sunset,1205 West Sunset Rd,Henderson,NV,89014,(702) 263-2168,(702) 263-3781,Mon-Fri 9:30-8 Sat 10-8 Sun 11-7
3,Karen Foster,506,394,Summerlin,8820 W. Charleston Blvd #102 Pad J,Las Vegas,NV,89117,(702) 586-3671,(702) 586-3674,Mon-Fri 10-9 Sat 9:30-9 Sun 10-6
3,Karen Foster,506,482,Victorville,14130 Bear Valley Rd,Victorville,CA,92392,(760) 951-7048,(760) 952-2584,Mon-Fri 9:30-8:30 Sat 9:30-9 Sun 10-6
3,Karen Foster,506,640,Durango,6640 N. Durango Drive,Las Vegas,NV,89149,(702) 396-1018,(702) 396-1518,Mon-Sat 10-8 Sun 11-6
3,Karen Foster,506,768,Flamingo & Grand Canyon Pkwy,4115 South Grand Canyon Drive,Las Vegas,NV,89147,(702) 257-0379,(702) 257-0381,Mon-Sat 9:30-8 Sun 11-6
3,Karen Foster,506,802,Las Vegas (Rainbow),7040 S. Rainbow Blvd,Las Vegas,NV,89113,(702) 534-1663,,Mon-Sat 10-9 Sun 11-6
3,Karen Foster,506,806,Nellis Blvd,230 N Nellis Blvd,Las Vegas,NV,89110,(702) 453-0134,(702) 453-0149,Mon-Sat 9:30-8 Sun 10-6
3,Karen Foster,506,832,Henderson-Eastern,10251 South Eastern Ave,Henderson,NV,89052,(702) 407-0357,(702) 407-0456,Mon-Sat 9:30-8:30 Sun 11-6
1,Zhila Casas,404,122,Chesapeake,1412 Greenbrier Parkway,Chesapeake,VA,23320,(757) 366-9494,(757) 366-0370,Mon-Fri 9:30-9 Sat 9-9:30 Sun 10-7
1,Zhila Casas,404,137,Springfield,6701-A Loisdale Road,Springfield,VA,22150,(703) 971-6420,(703) 971-6585,Mon-Sat 9:30-9 Sun 10-7
1,Zhila Casas,404,213,Newport News,12266 Jefferson Ave,Newport News,VA,23602,(757) 249-3697,(757) 249-3539,Mon-Fri 9:30-9 Sat 9:30-8:30 Sun 11-6
1,Zhila Casas,404,254,Glenn Allen,10097 Brook Rd,Glen Allen,VA,23059,(804) 515-8221,(804) 515-8163,Mon-Fri 10-8:30 Sat 9:30-8 Sun 11-7
1,Zhila Casas,404,258,Winchester,2500 S Pleasant Valley Rd,Winchester,VA,22601,(540) 678-4109,(540) 667-2970,Mon-Fri 9:30-8:30 Sat 9:30-9 Sun 10-6
1,Zhila Casas,404,266,Town Center,233 Independence Blvd,Virginia Bch,VA,23462,(757) 456-0797,(757) 456-0965,Mon-Fri 9:30-9 Sat 9-8:30 Sun 10-7
1,Zhila Casas,404,330,Chesterfield,11440 Midlothian Turnpike,Richmond,VA,23235,(804) 379-6259,(804) 379-6715,Mon-Fri 9:30-9 Sat 9:30-8:30 Sun 10-7
1,Zhila Casas,404,344,Libbie Pl,5701 W Broad St,Richmond,VA,23230,(804) 282-1867,(804) 282-2768,Mon-Fri 10-9 Sat 10-8:30 Sun 11-7
1,Zhila Casas,404,358,Short Pump,11301 West Broad St,Glen Allen,VA,23060,(804) 360-2456,(804) 360-3756,Mon-Sat 9:30-8:30 Sun 10-6
1,Zhila Casas,404,372,Charlottesville,1650 Rio Road East,Charlottesville,VA,22901,(434) 964-1213,(434) 964-1636,Mon-Fri 10-8 Sat 9:30-8 Sun 11-6
1,Zhila Casas,404,509,Woodbridge,14065 Shoppers Best Way,Woodbridge,VA,22192,(703) 583-1479,(703) 583-1502,Mon-Fri 9:30-9 Sat 9:30-8:30 Sun 10-7
1,Zhila Casas,404,624,Williamsburg,5226 Monticello Ave,Williamsburg,VA,23188,(757) 229-0680,(757) 229-0701,Mon-Fri 10-8:30 Sat 10-8 Sun 11-6
1,Zhila Casas,404,650,Mt. Vernon,7713 Fordson Road,Alexandria,VA,22306,(703) 619-7922,(703) 619-7993,Mon-Sat 10-8:30 Sun 11-6
1,Zhila Casas,404,730,Norfolk,729 W 21st Street,Norfolk,VA,23517,(757) 627-1701,(757) 627-1703,Mon-Sat 9:30-9 Sun 10-7
1,Zhila Casas,404,747,Colonial Heights,551 Southpark Blvd,Colonial Heights,VA,23834,(804) 526-5974,(804) 526-5975,Mon-Sat 9:30-8 Sun 11-7
1,Zhila Casas,404,772,Hilltop,1721 Laskin Road,Virginia Beach,VA,23454,(757) 422-0681,(757) 422-0930,Mon-Sat 10-8:30 Sun 11-6
1,Leah Chicago,408,159,Columbia,195 Harbison Blvd,Columbia,SC,29212,(803) 749-1433,(803) 749-9690,Mon-Fri 9:30-8:30 Sat 9-9 Sun 10-7
1,Leah Chicago,408,169,Charleston,2115 Ashley Phosphate Rd,North Charleston,SC,29406,(843) 569-1866,(843) 569-1265,Mon-Sat 9:30-9 Sun 10-7
1,Leah Chicago,408,262,Forest Acres,2130 North Beltline Blvd,Columbia,SC,29204,(803) 738-2370,(803) 738-2367,Mon-Fri 10-8:30 Sat 9:30-8:30 Sun 10-6
1,Leah Chicago,408,305,Greenville,1129 Woodruff Rd,Greenville,SC,29607,(864) 987-9947,(864) 987-9570,Mon-Sat 9:30-9 Sun 10-7
1,Leah Chicago,408,376,Myrtle Beach,1315 Oak Forest Lane,Myrtle Beach,SC,29577,(843) 444-2497,(843) 626-2436,Mon-Fri 10-9 Sat 9:30-8:30 Sun 10-7
1,Leah Chicago,408,399,Anderson,3334 N. Main St.,Anderson,SC,29621,(864) 226-8513,(864) 226-8947,Mon-Fri 9:30-9 Sat 9:30-8 Sun 11-6
1,Leah Chicago,408,444,Magnolia ( Florence),2590 David H. McLeod Blvd.,Florence,SC,29501,(843) 669-3347,(843) 665-8947,Mon-Fri 9:30-9 Sat 9:30-8:30 Sun 11-6
1,Leah Chicago,408,480,Wilmington,3912 Oleander Dr.,Wilmington,NC,28403,(910) 313-2480,(910) 313-2481,Mon-Sat 9:30-8:30 Sun 10-6
1,Leah Chicago,408,520,Spartanburg,1501 W.O Ezell Blvd,Spartanburg,SC,29301,(864) 574-7570,(864) 574-6972,Mon-Sat 9:30-8:30 Sun 11-7
1,Leah Chicago,408,557,Savannah,7929 Abercorn St,Savannah,GA,31406,(912) 925-2581,(912) 925-9675,Mon-Fri 9:30-9 Sat 9:30-8 Sun 11-6
1,Leah Chicago,408,677,Augusta,238 Robert C. Daniel JR Parkway,Augusta,GA,30909,(706) 733-2028,(706) 736-5721,Mon-Fri 10-8:30 Sat 10-9 Sun 11-6
1,Leah Chicago,408,678,Two Notch,10266 Two Notch Road,Columbia,SC,29229,(803) 736-7155,(803) 788-5848,Mon-Fri 9:30-9 Sat 9:30-8:30 Sun 10-7
1,Leah Chicago,408,749,Easley,4839 C Calhoun Memorial Highway US 123,Easley,SC,29640,(864) 859-8615,(864) 850-5182,Mon-Fri 10-8:30 Sat 9:30-8:30 Sun 11-7
1,Leah Chicago,408,753,Greer,5790 Wade Hampton Rd,Taylors,SC,29687,(864) 877-1535,(864) 879-6946,Mon-Sat 10-8:30 Sun 11-6
1,Leah Chicago,408,786,Aiken,1963 Whiskey Rd,Aiken,SC,29803,(803) 648-1718,(803) 648-1029,Mon-Sat 10-8 Sun 11-6
1,Leah Chicago,408,815,Lexington,5449 Sunset Blvd,Lexington,SC,29072,(803) 356-6884,(803) 399-2025,Mon-Fri 10-8:30 Sat 10-8 Sun 10-6
1,Leah Chicago,408,846,Sumter,1177 Broad Street,Sumter,SC,29150,(803) 469-8856,,Mon-Sun 10-6
1,Leah Chicago,408,870,Mt Pleasant,1102 Bowman Rd,Mount Pleasant,SC,29464,(843) 884-5063,,Mon-Sat 9:30-8 Sun 11-6
1,Leah Chicago,408,1502,North Myrtle Beach,1502 Highway 17 N,North Myrtle Bch,SC,29582,(843) 249-0001,(843) 249-0062,Mon-Fri 9:30-8:30 Sat 10-8:30 Sun 11-7
1,Andrew Luckadoo,411,200,Hickory,2369 Highway 70 SE,Hickory,NC,28602,(828) 267-8800,(828) 267-8839,Mon-Sat 9:30-9 Sun 10-7
1,Andrew Luckadoo,411,203,Greensboro,4502 West Wendover Ave,Greensboro,NC,27409,(336) 834-1910,(336) 834-0558,Mon-Fri 9:30-9 Sat 9:30-8:30 Sun 10-7
1,Andrew Luckadoo,411,310,Winston Salem,114 Hanes Mall Blvd,Winston Salem,NC,27103,(336) 768-8947,(336) 768-8708,Mon-Fri 9:30-9 Sat 9:30-8:30 Sun 10-7
1,Andrew Luckadoo,411,377,Lynchburg,3919 Wards Rd,Lynchburg,VA,24502,(434) 239-5417,(434) 237-4683,Mon-Fri 10-9 Sat 9:30-9 Sun 10-7
1,Andrew Luckadoo,411,507,Roanoke,4750 Valley View Blvd. NW,Roanoke,VA,24012,(540) 366-0595,(540) 366-0540,Mon-Sat 10-8 Sun 12-6
1,Andrew Luckadoo,411,543,Gastonia,409 Cox Rd,Gastonia,NC,28054,(704) 864-2315,(704) 861-6247,Mon-Fri 9:30-9 Sat 9:30-8 Sun 10-6
1,Andrew Luckadoo,411,573,Asheville,148 Tunnel Road,Asheville,NC,28805,(828) 251-7387,(828) 251-8273,Mon-Fri 9:30-8 Sat 10-8 Sun 11-6
1,Andrew Luckadoo,411,830,High Point,2313 N Main Street,High Point,NC,27262,(336) 885-0281,,Mon-Sat 10-8:30 Sun 11-7
2,Eary Warren,205,78,Plantation,268 S University Dr,Fort Lauderdale,FL,33324,(954) 424-1850,(954) 424-1352,Mon-Sat 9:30-9 Sun 10-7
2,Eary Warren,205,89,Coral Springs,1400 University Dr,Coral Springs,FL,33071,(954) 340-3656,(954) 340-5383,Mon-Fri 10-9 Sat 10-8:30 Sun 10-7
2,Eary Warren,205,245,Lakeland,3813 US Highway 98 North,Lakeland,FL,33809,(863) 815-6020,(863) 816-2531,Mon-Sat 9:30-8:30 Sun 10-7
2,Eary Warren,205,348,Sarasota,4104 S Tamiami Trail (US 41),Sarasota,FL,34231,(941) 921-2173,(941) 923-3781,Mon-Fri 9:30-9 Sat 9:30-8:30 Sun 11-6
2,Eary Warren,205,356,Bradenton,4022 14th St,Bradenton,FL,34205,(941) 708-3281,(941) 708-3429,Mon-Fri 9:30-8:30 Sat 9-8 Sun 10-7
2,Eary Warren,205,401,Pompano Beach,413 N. Federal Hwy,Pompano Beach,FL,33062,(954) 786-9323,(954) 786-9612,Mon-Fri 10-8 Sat 9:30-8 Sun 10-6
2,Eary Warren,205,402,Sunrise,1723 N. University Drive,Fort Lauderdale,FL,33322,(954) 472-7644,(954) 472-9314,Mon-Fri 9:30-9 Sat 9:30-8:30 Sun 10-7
2,Eary Warren,205,426,E. Fort Myers,9390 6 Mile Cypress Pkwy,Fort Myers,FL,33966,(239) 274-1299,(239) 274-3403,Mon-Sat 9:30-8 Sun 10-6
2,Eary Warren,205,430,Fort Myers,11741 S. Cleveland Ave,Fort Myers,FL,33907,(239) 274-6182,(239) 274-6824,Mon-Fri 9:30-8 Sat 9-8 Sun 10-6
2,Eary Warren,205,477,Bonita Springs,23210 Via Villagio,Estero,FL,33928,(239) 390-9376,(239) 390-9266,Mon-Sat 10-8 Sun 11-6
2,Eary Warren,205,488,Naples,6434 Naples Blvd,Naples,FL,34109,(239) 254-0834,(239) 254-1573,Mon-Fri 9:30-9 Sat 9-9 Sun 10-7
2,Eary Warren,205,554,Kissimmee,3312 Greenwald Way North,Kissimmee,FL,34741,(407) 931-2023,(407) 931-2024,Mon-Fri 9:30-9 Sat 9:30-8:30 Sun 10-6
2,Eary Warren,205,661,Venice,4254 Tamiami Trail S.,Venice,FL,34293,(941) 493-1925,(941) 493-1965,Mon-Sat 10-7 Sun 10-6
2,Eary Warren,205,856,Port Charlotte,1851 Tamiami Trail,Port Charlotte,FL,33948,(941) 627-5012,,Mon-Fri 9:30-8 Sat 10-8 Sun 11-6
2,Eary Warren,205,874,Winter Haven,601 Cypress Gardens Blvd SE.,Winter Haven,FL,33880,(863) 291-3514,,Mon-Sat 9:30-8 Sun 11-6
2,Eary Warren,205,877,St. Cloud,4301 13th Street,Saint Cloud,FL,34769,(407) 957-3011,,Mon-Fri 9:30-8:30 Sat 9:30-8 Sun 10-6
2,Eary Warren,205,884,Sarasota,"243 N Cattlemen Rd. 
Unit # 71",Sarasota,FL,34243,(941) 351-9895,,Mon-Fri 10-8:30 Sat 10-8 Sun 11-6
2,Eary Warren,205,889,South Naples,12679 Tamiami Trail East,Naples,FL,34113,(239) 793-5354,,Mon-Sat 9:30-9 Sun 10-7
2,Patrick Hoadley,206,131,Morrow,1951 Mount Zion Road,Morrow,GA,30260,(678) 479-6636,(678) 479-9393,Mon-Sat 10-8:30 Sun 10-7
2,Patrick Hoadley,206,141,Chattanooga,2021 Gun Barrel Rd,Chattanooga,TN,37421,(423) 553-9099,(423) 553-9033,Mon-Sat 10-8:30 Sun 10-6
2,Patrick Hoadley,206,197,Camp Creek,3440 Camp Creek Pkwy,Atlanta,GA,30344,(404) 494-3125,(404) 494-3178,Mon-Fri 10-9 Sat 10-8:30 Sun 10-7
2,Patrick Hoadley,206,345,Knoxville,7833 Kingston Pike,Knoxville,TN,37919,(865) 670-8927,(865) 670-8964,Mon-Fri 9-9 Sat 9:30-8:30 Sun 10-7
2,Patrick Hoadley,206,418,"Newnan,GA",335 Newnan Crossing Bypass,Newnan,GA,30265,(678) 423-4238,(678) 423-4272,Mon-Sat 10-8:30 Sun 10-7
2,Patrick Hoadley,206,434,Huntsville,6275 University Dr. NW,Huntsville,AL,35806,(256) 971-6907,(256) 971-2253,Mon-Fri 9:30-9 Sat 9:30-8:30 Sun 10-7
2,Patrick Hoadley,206,490,Hoover,1713 Montgomery Hwy,Birmingham,AL,35244,(205) 987-5328,(205) 987-5981,Mon-Fri 9:30-9 Sat 9-9 Sun 10-7
2,Patrick Hoadley,206,540,Warner Robins,2971 Watson Blvd,Warner Robins,GA,31093,(478) 953-5940,(478) 953-8545,Mon-Fri 9:30-8:30 Sat 9:30-8 Sun 10-6
2,Patrick Hoadley,206,574,Kennesaw,2555 Prado Lane,Marietta,GA,30066,(770) 419-3492,(770) 420-2825,Mon-Sat 10-8:30 Sun 11-6
2,Patrick Hoadley,206,614,McDonough,1438 Highway 20 West,McDonough,GA,30253,(678) 565-4636,(678) 565-4637,Mon-Fri 9:30-9 Sat 9:30-8:30 Sun 11-7
2,Patrick Hoadley,206,644,Macon,167 Gateway Drive,Macon,GA,31210,(478) 471-0533,(478) 471-7055,Mon-Sat 10-8:30 Sun 11-6
2,Patrick Hoadley,206,725,Acworth,3329 Cobb Pkwy,Acworth,GA,30101,(770) 966-5390,(770) 917-4976,Mon-Fri 10-8:30 Sat 10-8 Sun 11-6
2,Patrick Hoadley,206,839,Douglasville,2911 Chapel Hill Rd,Douglasville,GA,30135,(678) 715-1541,(678) 715-1542,Mon-Sat 9:30-9 Sun 11-7
2,Patrick Hoadley,206,844,Hixson,5546 Highway 153,Hixson,TN,37343,(423) 870-6605,,Mon-Fri 10-8 Sat 10-8:30 Sun 11-6
2,Patrick Hoadley,206,866,Trussville,3220 Morrow Rd,Birmingham,AL,35235,(205) 661-0024,,Mon-Fri 10-8:30 Sat 9:30-8 Sun 11-6
2,Patrick Hoadley,206,868,Austell,1605 East-West Connector,Austell,GA,30106,(770) 732-1374,,Mon-Fri 10-8:30 Sat 9:30-8:30 Sun 11-6
2,Patrick Hoadley,206,873,Tuscaloosa,1320 McFarland Blvd East,Tuscaloosa,AL,35404,(205) 758-6709,,Mon-Sat 10-8 Sun 11-6
2,Patrick Hoadley,206,883,Turkey Creek,10950 Parkside Drive,Knoxville,TN,37934,(865) 671-1053,,Mon-Sat 9:30-8 Sun 11-6
2,Monica Garcia,209,80,Dadeland,8303 S Dixie Hwy,Miami,FL,33143,(305) 666-2878,(305) 666-1850,Mon-Fri 9:30-9 Sat 9-9 Sun 10-7
2,Monica Garcia,209,81,Hialeah,1165 W 49th St,Hialeah,FL,33012,(305) 231-7732,(305) 231-7957,Mon-Fri 9-9 Sat 9:30-9 Sun 10-6
2,Monica Garcia,209,101,Fort Lauderdale,2205 N Federal Hwy,Ft Lauderdale,FL,33305,(954) 564-3232,(954) 564-3319,Mon-Fri 9:30-9 Sat 9-8:30 Sun 10-7
2,Monica Garcia,209,349,North Kendall,16383 SW 88th St,Miami,FL,33196,(305) 385-7924,(305) 385-7926,Mon-Fri 9:30-9 Sat 9:30-8 Sun 10-6
2,Monica Garcia,209,355,North Miami,12301 NE Biscayne Blvd,Miami,FL,33181,(305) 892-7235,(305) 892-7527,Mon-Fri 9:30-9 Sat 9-8:30 Sun 9:30-7
2,Monica Garcia,209,420,Dania/Hollywood,1780 Stirling Rd,Dania,FL,33004,(954) 922-8861,(954) 922-8761,Mon-Sat 10-9 Sun 10-7
2,Monica Garcia,209,468,Miami Beach,1101 5th St,Miami Beach,FL,33139,(305) 673-6396,(305) 673-6364,Mon-Sat 10-9 Sun 11-6
2,Monica Garcia,209,481,Coral Gables,3301 SW 22nd St,Miami,FL,33145,(305) 569-0525,(305) 569-0995,Mon-Fri 9:30-9 Sat 9-8:30 Sun 10-6
2,Monica Garcia,209,533,Westchester,8655 Coral Way,Miami,FL,33155,(305) 269-3190,(305) 261-2963,Mon-Sat 9:30-9 Sun 10-7
2,Monica Garcia,209,594,Aventura,18199 Biscayne Blvd,North Miami Beach,FL,33160,(305) 933-4017,(305) 933-4068,Mon-Sat 10-9 Sun 11-6
2,Monica Garcia,209,704,West Kendall,8707 S W 124th Ave,Miami,FL,33183,(305) 412-7777,(305) 412-6785,Mon-Fri 10-9 Sat 9:30-9 Sun 11-6
2,Monica Garcia,209,706,Pembroke Pines,10800 Pines Blvd,Hollywood,FL,33026,(954) 538-0994,(954) 538-1105,Mon-Sat 9:30-9 Sun 10-7
2,Monica Garcia,209,773,Homestead,1806 NE 8th Street,Homestead,FL,33033,(305) 248-7659,,Mon-Fri 9:30-9 Sat 9:30-8 Sun 11-6
2,Monica Garcia,209,776,Cutler Bay,19270 South Dixie Hwy,Miami,FL,33157,(305) 233-4013,,Mon-Fri 10-9 Sat 9:30-9 Sun 11-7
2,Monica Garcia,209,892,Hialeah,1001 W 49th Street,Hialeah,FL,33012,(305) 826-9458,,Mon-Sat 9-9 Sun 10-6
2,Brian Wicker,211,211,Roseville,31945 Gratiot Avenue,Roseville,MI,48066,(586) 415-1960,(586) 415-1973,Mon-Fri 9:30-9 Sat 9-9 Sun 9:30-7
2,Brian Wicker,211,388,Royal Oak,31753 Woodward Ave.,Royal Oak,MI,48073,(248) 549-8927,(248) 549-8983,Mon-Fri 10-9 Sat 10-8:30 Sun 10-6
2,Brian Wicker,211,599,Grand Rapids,3691 28th Street Southeast,Grand Rapids,MI,49512,(616) 575-0247,(616) 575-0248,Mon-Sat 9:30-8 Sun 11-6
2,Brian Wicker,211,733,Lansing,5924 W Saginaw Highway,Lansing,MI,48917,(517) 327-0950,(517) 327-0951,Mon-Sat 10-7:30 Sun 11-6
2,Brian Wicker,211,738,Saginaw,4875 Bay Road,Saginaw,MI,48604,(989) 791-1241,(989) 791-1246,Mon-Sat 10-8:30 Sun 10-6
2,Brian Wicker,211,755,Walker,3303 Alpine Ave,Grand Rapids,MI,49544,(616) 647-0229,(616) 647-0230,Mon-Fri 9:30-8:30 Sat 9-8 Sun 11-6
2,Brian Wicker,211,780,Livonia,12687 Middlebelt Rd,Livonia,MI,48150,(734) 524-0343,(734) 524-0346,Mon-Sat 9:30-8:30 Sun 11-6
2,Jim Ezzo,212,87,Ocoee,9693 W Colonial Dr,Ocoee,FL,34761,(407) 532-0386,(407) 532-9485,Mon-Fri 9:30-9 Sat 9:30-8:30 Sun 10-7
2,Jim Ezzo,212,88,Orlando,1233 Sand Lake Road,Orlando,FL,32809,(407) 854-0343,(407) 854-4025,Mon-Sat 10-8 Sun 11-6
2,Jim Ezzo,212,90,East Colonial,3807 E Colonial Dr,Orlando,FL,32803,(407) 895-9989,(407) 895-6026,Mon-Fri 9:30-9 Sat 9-8:30 Sun 10-7
2,Jim Ezzo,212,116,Brandon,101 Brandon Town Center Drive,Brandon,FL,33511,(813) 643-1010,(813) 643-2891,Mon-Fri 9:30-9 Sat 9-8:30 Sun 10-7
2,Jim Ezzo,212,124,University Park,2201 East Fowler Avenue,Tampa,FL,33612,(813) 615-9292,(813) 615-9550,Mon-Sat 9:30-8 Sun 10-6
2,Jim Ezzo,212,144,St Petersburg,2301 Tyrone Blvd,St Petersburg,FL,33710,(727) 347-2283,(727) 347-2295,Mon-Sat 9:30-9 Sun 10-7
2,Jim Ezzo,212,152,Clearwater,2719 Gulf to Bay Blvd,Clearwater,FL,33759,(727) 799-1757,(727) 799-1776,Mon-Fri 9:30-9 Sat 9:30-8 Sun 10-6
2,Jim Ezzo,212,199,Ocala,2701 SW College Rd,Ocala,FL,34474,(352) 873-9012,(352) 873-9065,Mon-Sat 9:30-8:30 Sun 10-6
2,Jim Ezzo,212,231,Altamonte Springs,275 E. Altamonte Dr,Altamonte Springs,FL,32701,(407) 260-7144,(407) 260-7146,Mon-Fri 9:30-9 Sat 9:30-8 Sun 11-7
2,Jim Ezzo,212,429,Gainesville,6921 West Newberry Rd,Gainesville,FL,32605,(352) 331-1708,(352) 331-3872,Mon-Sat 9:30-9 Sun 10-7
2,Jim Ezzo,212,446,Clermont,1500 Oakley Seaver Drive,Clermont,FL,34711,(352) 241-0175,(352) 241-4360,Mon-Fri 9:30-9 Sat 9:30-8:30 Sun 10-6
2,Jim Ezzo,212,450,The Villages,564 N US Highway 441,Lady Lake,FL,32159,(352) 205-7536,(352) 205-7862,Mon-Sat 9:30-8 Sun 10-7
2,Jim Ezzo,212,463,Palm Harbor,33470 US Hwy 19,Palm Harbor,FL,34684,(727) 781-8293,(727) 786-8414,Mon-Sat 9:30-8:30 Sun 11-6
2,Jim Ezzo,212,501,Millenia Mall,4012 Eastgate Dr,Orlando,FL,32839,(407) 370-2556,(407) 370-2547,Mon-Fri 10-9 Sat 10-8:30 Sun 11-7
2,Jim Ezzo,212,570,Guaynabo,Ave. San Patricio,Guaynabo,PR,00968,(787) 781-8501,(787) 781-8503,Mon-Sat 9-6 Sun 11-5
2,Jim Ezzo,212,610,Caguas,Rafael Cordero Ave Lot A-1,Caguas,PR,00725,(787) 704-7259,(787) 744-7147,Mon-Sat 9-6 Sun 10-5
2,Jim Ezzo,212,695,Brooksville,12970 Cortez Blvd,Brooksville,FL,34613,(352) 597-9091,(352) 597-7154,Mon-Sat 10-8 Sun 10-6
2,Jim Ezzo,212,702,Tampa,102 North Dale Mabry Highway,Tampa,FL,33609,(813) 874-3107,(813) 874-8627,Mon-Fri 9:30-9 Sat 9:30-8:30 Sun 10-7
2,Jim Ezzo,212,727,Largo,13100 Seminole Blvd,Largo,FL,33778,(727) 581-2592,(727) 581-2603,Mon-Fri 9:30-8:30 Sat 9:30-8 Sun 11-6
2,Jim Ezzo,212,743,St. Petersburg,2700 4th Street North,St. Petersburg,FL,33704,(727) 822-8102,(727) 822-8583,Mon-Fri 9:30-8:30 Sat 9:30-9 Sun 10-6
2,Jim Ezzo,212,764,Mt. Dora,17355 US 441,Mt. Dora,FL,32757,(352) 357-2124,,Mon-Fri 9:30-8 Sat 10-8 Sun 11-6
2,Jim Ezzo,212,847,Wesley Chapel,28152 Willet Way,Wesley Chapel,FL,33543,(813) 907-6679,,Mon-Sat 10-8 Sun 11-6
2,Jake Lohse,216,120,Orland Park,15131 South LaGrange Rd,Orland Park,IL,60462,(708) 226-0566,(708) 226-0567,Mon-Fri 9:30-9 Sat 9:30-8 Sun 10-6
2,Jake Lohse,216,123,Crystal Lake,815 Cog Circle,Crystal Lake,IL,60014,(815) 356-9460,(815) 356-9475,Mon-Sat 9:30-8:30 Sun 10-6
2,Jake Lohse,216,130,Geneva,1034 Commons Drive,Geneva,IL,60134,(630) 845-0891,(630) 845-0895,Mon-Sat 10-8 Sun 11-6
2,Jake Lohse,216,201,Burbank,7782 S. Cicero Ave,Burbank,IL,60459,(708) 499-1316,(708) 499-3103,Mon-Sat 9:30-8:30 Sun 10-6
2,Jake Lohse,216,222,Darien,2415 75th St,Darien,IL,60561,(630) 427-1458,(630) 427-1646,Mon-Fri 9:30-8:30 Sat 9:30-8 Sun 10-6
2,Jake Lohse,216,271,Oakbrook,17W700 22nd St,Villa Park,IL,60181,(630) 705-1170,(630) 705-1454,Mon-Fri 10-8:30 Sat 9:30-8 Sun 10-6
2,Jake Lohse,216,273,Algonquin,1496 S Randall Rd,Algonquin,IL,60102,(847) 854-8218,(847) 854-8292,Mon-Sat 9:30-8:30 Sun 10-7
2,Jake Lohse,216,412,Peoria,5116 North Big Hollow Rd,Peoria,IL,61615,(309) 691-6954,(309) 691-6963,Mon-Fri 9:30-8:30 Sat 9-8 Sun 11-6
2,Jake Lohse,216,472,Matteson,4803 Lincoln Highway,Matteson,IL,60443,(708) 283-7059,(708) 283-7064,Mon-Fri 9:30-9 Sat 10-8:30 Sun 10-7
2,Jake Lohse,216,476,Bloomingdale,383 W. Army Trail Rd.,Bloomingdale,IL,60108,(630) 893-0769,(630) 893-0639,Mon-Fri 10-9 Sat 9:30-8:30 Sun 10-6
2,Jake Lohse,216,535,Bloomington,1511 East Vernon Ave,Bloomington,IL,61701,(309) 661-2414,(309) 661-2865,Mon-Sat 9:30-8:30 Sun 11-6
2,Jake Lohse,216,582,Champaign,901A W. Anthony Drive,Champaign,IL,61820,(217) 398-0970,(217) 398-0934,Mon-Sat 9:30-8:30 Sun 11-6
2,Jake Lohse,216,593,Evergreen Park,2501 W 95th Street,Evergreen Park,IL,60805,(708) 229-0370,(708) 229-0403,Mon-Fri 9:30-9 Sat 9:30-8:30 Sun 10-7
2,Jake Lohse,216,596,Naperville,1995 W Jefferson Ave,Naperville,IL,60540,(630) 637-8260,(630) 637-8262,Mon-Fri 10-8:30 Sat 9:30-8:30 Sun 10-6
2,Jake Lohse,216,601,Springfield,2802 SW Plaza Drive,Springfield,IL,62704,(217) 546-3843,(217) 546-3891,Mon-Fri 10-8 Sat 9:30-8 Sun 11-6
2,Jake Lohse,216,641,Countryside,6005 S. LaGrange Road,La Grange,IL,60525,(708) 352-1832,(708) 352-1843,Mon-Fri 10-8 Sat 9:30-8 Sun 11-6
2,Jake Lohse,216,658,Bollingbrook,123 North Weber Road,Bolingbrook,IL,60490,(630) 759-1392,(630) 759-1421,Mon-Fri 9:30-8:30 Sat 9:30-8 Sun 11-7
2,Jake Lohse,216,697,Oak Lawn,6310 West 95th Street,Oak Lawn,IL,60453,(708) 598-6279,(708) 598-6323,Mon-Fri 10-8:30 Sat 10-8 Sun 10-6
2,Jake Lohse,216,722,South Elgin,414 Randall Road,South Elgin,IL,60177,(847) 468-1447,(847) 468-1454,Mon-Fri 10-7:30 Sat 10-7 Sun 11-6
2,Tracee Raglow,301,235,Castleton,3730 East 82nd St,Indianapolis,IN,46240,(317) 570-9358,(317) 570-9204,Mon-Fri 10-8:30 Sat 10-9 Sun 11-7
2,Tracee Raglow,301,238,Troy,300 John R Road,Troy,MI,48083,(248) 307-1227,(248) 307-1605,Mon-Sat 9:30-9 Sun 10-6
2,Tracee Raglow,301,255,Farmington Hills,30730 Orchard Lake Rd,Farmington Hills,MI,48334,(248) 538-8301,(248) 538-9194,Mon-Fri 9:30-8:30 Sat 9:30-8 Sun 10-7
2,Tracee Raglow,301,263,Rochester Hills,2603 S. Rochester Rd,Rochester,MI,48307,(248) 852-8280,(248) 852-8293,Mon-Sat 9:30-8:30 Sun 10-6
2,Tracee Raglow,301,265,South Bend,5724 Grape Avenue,Mishawaka,IN,46545,(574) 277-3432,(574) 277-3961,Mon-Sat 9:30-8:30 Sun 10-6
2,Tracee Raglow,301,268,Auburn Hills,3970 Baldwin Rd,Auburn Hills,MI,48326,(248) 338-0643,(248) 338-0635,Mon-Fri 10-8:30 Sat 10-8 Sun 11-7
2,Tracee Raglow,301,270,Allen Park,23051 Outer Dr,Allen Park,MI,48101,(313) 278-5979,(313) 278-5435,Mon-Fri 10-9 Sat 10-8:30 Sun 10-6
2,Tracee Raglow,301,303,Shelby Township,14771 Hall Rd,Utica,MI,48315,(586) 532-1335,(586) 532-1794,Mon-Fri 9:30-9 Sat 9-8:30 Sun 10-6
2,Tracee Raglow,301,316,Ann Arbor,3365 Washtenaw Ave,Ann Arbor,MI,48104,(734) 477-6897,(734) 477-8025,Mon-Fri 10-8:30 Sat 9:30-8:30 Sun 10-6
2,Tracee Raglow,301,319,Greenwood,1234 Hwy 31 North,Greenwood,IN,46142,(317) 881-5358,(317) 881-5919,Mon-Sat 9:30-8:30 Sun 10-7
2,Tracee Raglow,301,373,Fort Wayne,4601-4605 Illinois Rd,Fort Wayne,IN,46804,(260) 459-0361,(260) 459-0529,Mon-Fri 9:30-8:30 Sat 9:30-8 Sun 10-6
2,Tracee Raglow,301,424,Shelbyville Road,4600 Shelbyville Road,Lousiville,KY,40207,(502) 899-9794,(502) 899-9846,Mon-Fri 10-8 Sat 9:30-9 Sun 10-6
2,Tracee Raglow,301,443,Lafayette,1 Sagamore Parkway S,Lafayette,IN,47905,(765) 448-3620,(765) 448-3621,Mon-Fri 9:30-8 Sat 10-8 Sun 11-7
2,Tracee Raglow,301,448,Dayton,2405 Miamisburg - Centerville,Dayton,OH,45459,(937) 439-0925,(937) 439-0972,Mon-Fri 9:30-8:30 Sat 9:30-8 Sun 11-7
2,Tracee Raglow,301,449,Lexington,4005 Nicholasville Rd.,Lexington,KY,40503,(859) 272-2227,(859) 272-2228,Mon-Sat 9:30-8:30 Sun 11-7
2,Tracee Raglow,301,465,Avon,10979 East US Hwy 36,Avon,IN,46123,(317) 273-0476,(317) 273-0604,Mon-Sat 9:30-8:30 Sun 10-6
2,Tracee Raglow,301,469,Springdale,5 East Kemper Rd,Cincinnati,OH,45246,(513) 671-0021,(513) 671-0036,Mon-Fri 10-9 Sat 10-8:30 Sun 11-6
2,Tracee Raglow,301,497,Florence,7508 Mall Rd,Florence,KY,41042,(859) 746-0015,(859) 746-0035,Mon-Sat 9:30-9 Sun 10-6
2,Tracee Raglow,301,519,East Washington,10110 East Washington St,Indianapolis,IN,46229,(317) 897-3913,(317) 897-3943,Mon-Sat 10-8:30 Sun 11-7
2,Tracee Raglow,301,521,Fields Ertel,9950 Waterstone Blvd,Cincinnati,OH,45249,(513) 583-0148,(513) 583-1096,Mon-Sat 9:30-8:30 Sun 10-6
2,Tracee Raglow,301,590,Springhurst,4000 Towne Center Drive,Louisville,KY,40241,(502) 425-1362,(502) 426-5190,Mon-Sat 10-8:30 Sun 11-6
2,Tracee Raglow,301,632,Northville,20580 Haggerty Road,Northville,MI,48167,(734) 462-4064,(734) 462-4170,Mon-Sat 11-7:30 Sun 11-7
2,Tracee Raglow,301,643,Cincinnati,3831 Edwards Road,Cincinnati,OH,45209,(513) 351-3380,(513) 351-3384,Mon-Fri 10-8:30 Sat 9:30-8 Sun 10-6
2,Tracee Raglow,301,656,Noblesville,17143 Mercantile Blvd,Noblesville,IN,46060,(317) 776-1381,(317) 776-1529,Mon-Sat 10-7 Sun 11-6
2,Tracee Raglow,301,789,Taylor,21901 Eureka Rd,Taylor,MI,48180,(734) 287-0075,(734) 287-0255,Mon-Fri 9:30-8:30 Sat 9:30-8 Sun 10-7
2,Tracee Raglow,301,858,Brighton,8533 West Grand River Ave,Brighton,MI,48116,(810) 229-2238,,Mon-Sat 10-7 Sun 12-6
2,Joanne LaRocca,302,127,Merrillville,2217 East 80th Avenue,Merrillville,IN,46410,(219) 756-0599,(219) 756-0670,Mon-Fri 9:30-8:30 Sat 9-8:30 Sun 10-7
2,Joanne LaRocca,302,128,Arlington Hts,1 West Rand Rd,Arlington Heights,IL,60004,(847) 577-2388,(847) 577-8932,Mon-Fri 10-9 Sat 9:30-9 Sun 10-7
2,Joanne LaRocca,302,145,Calumet City,1243 Torrence Ave.,Calumet City,IL,60409,(708) 862-3498,(708) 862-5657,Mon-Fri 9:30-9 Sat 10-8:30 Sun 10-7
2,Joanne LaRocca,302,146,Niles,8600 West Golf Road,Niles,IL,60714,(847) 759-9805,(847) 759-9806,Mon-Sat 10-8:30 Sun 10-7
2,Joanne LaRocca,302,171,Vernon Hills,325 North Milwaukee Ave,Vernon Hills,IL,60061,(847) 520-2574,(847) 520-4218,Mon-Sat 10-8 Sun 11-6
2,Joanne LaRocca,302,173,Skokie,9410 North Skokie Blvd,Skokie,IL,60077,(847) 673-5010,(847) 673-5859,Mon-Sat 10-8:30 Sun 10-6
2,Joanne LaRocca,302,272,Norridge,4275 N. Harlem Ave,Harwood Heights,IL,60706,(708) 457-1937,(708) 457-2236,Mon-Sat 9:30-9 Sun 10-7
2,Joanne LaRocca,302,473,Elston & Logan,2705 N. Elston Ave.,Chicago,IL,60647,(773) 235-8370,(773) 235-8380,Mon-Sat 9:30-8:30 Sun 10-7
2,Joanne LaRocca,302,485,Schaumburg,681 East Golf Road,Schaumburg,IL,60173,(847) 285-3289,(847) 285-3403,Mon-Fri 10-9 Sat 9:30-8:30 Sun 11-6
2,Joanne LaRocca,302,503,Lincoln Park (Clybourn),1590 North Clybourn Ave,Chicago,IL,60642,(312) 202-0117,(312) 202-0181,Mon-Sat 11-8 Sun 11-6
2,Joanne LaRocca,302,537,Melrose Park,1350 Winston Plaza,Melrose Park,IL,60160,(708) 345-6150,(708) 345-6184,Mon-Sat 10-9 Sun 11-6
2,Joanne LaRocca,302,561,Davenport,5270 Elmore Ave,Davenport,IA,52807,(563) 355-7476,(563) 355-5163,Mon-Fri 10-8 Sat 10-8:30 Sun 11-6
2,Joanne LaRocca,302,564,Berwyn,7180 W Cermak Road,Berwyn,IL,60402,(708) 788-5097,(708) 788-5382,Mon-Fri 10-9 Sat 9:30-8 Sun 10-6
2,Joanne LaRocca,302,591,Lincolnwood,7140 Mc Cormick Blvd,Lincolnwood,IL,60712,(847) 763-1230,(847) 763-1265,Mon-Fri 10-9 Sat 9:30-9 Sun 10-7
2,Joanne LaRocca,302,657,Highland,10343 Indianapolis Blvd,Highland,IN,46322,(219) 924-1789,(219) 924-2086,Mon-Sat 9:30-9 Sun 10-7
2,Joanne LaRocca,302,662,Wicker Park,1303 North Milwaukee Ave,Chicago,IL,60622,(773) 252-4081,(773) 252-4157,Mon-Sat 10-8:30 Sun 11-6
2,Joanne LaRocca,302,666,South Loop,601 West Roosevelt Blvd,Chicago,IL,60607,(312) 243-0094,(312) 243-0919,Mon-Fri 10-8 Sat 10-7 Sun 11-6
2,Joanne LaRocca,302,696,Lake Zurich,440 South Rand Rd,Lake Zurich,IL,60047,(847) 550-1841,(847) 550-1845,Mon-Sat 10-8 Sun 11-6
2,Joanne LaRocca,302,756,Ashland & School,3325 N Ashland Ave,Chicago,IL,60657,(773) 348-7987,(773) 348-8017,Mon-Sat 10-8 Sun 11-6
2,Joanne LaRocca,302,819,Gurnee,6447 Grand Ave,Gurnee,IL,60031,(847) 855-2534,,Mon-Sat 10-8:30 Sun 11-6
2,Nicole Soll,307,214,Greenfield,7515  West Layton Ave,Milwaukee,WI,53220,(414) 282-8973,(414) 282-9458,Mon-Sat 9:30-8:30 Sun 10-7
2,Nicole Soll,307,220,Wauwatosa,2543 Mayfair Rd,Milwaukee,WI,53226,(414) 258-9133,(414) 258-9266,Mon-Sat 9:30-7 Sun 11-6
2,Nicole Soll,307,338,Appleton,4359 West Wisconsin Ave,Appleton,WI,54913,(920) 733-3768,(920) 733-3786,Mon-Sat 10-7 Sun 11-5
2,Nicole Soll,307,382,Madison (East),4620 East Washington Ave,Madison,WI,53704,(608) 242-9146,(608) 242-9162,Mon-Sat 10-8 Sun 11-6
2,Nicole Soll,307,422,Coon Rapids,3388 River Rapids Drive,Coon Rapids,MN,55448,(763) 323-3188,(763) 323-3404,Mon-Fri 9:30-9 Sat 9-8:30 Sun 10-7
2,Nicole Soll,307,452,Woodbury,8960 Hudson Rd,St. Paul,MN,55125,(651) 578-6875,(651) 578-0166,Mon-Fri 9:30-8:30 Sat 9:30-8 Sun 10-7
2,Nicole Soll,307,551,Lincoln,6105 O Street,Lincoln,NE,68510,(402) 465-8294,(402) 466-4054,Mon-Sat 10-8:30 Sun 11-6
2,Nicole Soll,307,553,Council Bluffs,3815 Metro Drive,Council Bluffs,IA,51501,(712) 366-7803,(712) 366-7817,Mon-Sat 10-8 Sun 10-6
2,Nicole Soll,307,572,Roseville,1777 West County Road B2,St Paul,MN,55113,(651) 633-4514,(651) 636-4841,Mon-Fri 10-9 Sat 9:30-8:30 Sun 10-6
2,Nicole Soll,307,580,Omaha,3404/06 South 144th Street,Omaha,NE,68144,(402) 334-0114,(402) 334-0130,Mon-Sat 10-8:30 Sun 11-7
2,Nicole Soll,307,588,Edina,6996 France Ave,Minneapolis,MN,55435,(952) 929-1682,(952) 929-1683,Mon-Fri 9:30-9 Sat 9-9 Sun 10-7
2,Nicole Soll,307,604,Maplewood,1987 County Road D,St. Paul,MN,55109,(651) 773-6537,(651) 773-6593,Mon-Fri 10-8:30 Sat 10-8 Sun 11-6
2,Nicole Soll,307,619,Rockford,5946 East State Street,Rockford,IL,61108,(815) 397-9244,(815) 397-9244,Mon-Sat 9:30-8 Sun 11-6
2,Nicole Soll,307,622,St. Cloud,4041 Division Street,St. Cloud,MN,56301,(320) 253-3417,(320) 253-5446,Mon-Sat 10-7 Sun 11-6
2,Nicole Soll,307,627,Duluth,2104 Maple Grove Road,Duluth,MN,55811,(218) 722-4925,(218) 722-4930,Mon-Sat 11-7 Sun 11-4
2,Nicole Soll,307,646,Sioux Falls,4207 W. 41st Street,Sioux Falls,SD,57106,(605) 361-4312,(605) 361-4318,Mon-Sat 10-7 Sun 12-6
2,,405,164,Madison,2225 Gallatin Pike North,Madison,TN,37115,(615) 859-4696,(615) 859-4961,Mon-Fri 9:30-9 Sat 9:30-8:30 Sun 10-7
2,,405,186,Memphis,780 Truse Parkway,Memphis,TN,38117,(901) 682-0334,(901) 682-4821,Mon-Sat 9:30-8:30 Sun 10-6
2,,405,187,Franklin,1770 Galleria Boulevard,Franklin,TN,37067,(615) 771-9745,(615) 771-8714,Mon-Sat 9:30-8:30 Sun 10-7
2,,405,390,Bowling Green,2800 Scottsville Rd,Bowling Green,KY,42104,(270) 843-2295,(270) 901-1852,Mon-Fri 9:30-8:30 Sat 9-8:30 Sun 11-7
2,,405,453,Overland Park,11821 Metcalf,Overland Park,KS,66210,(913) 327-7515,(973) 327-5862,Mon-Fri 10-8:30 Sat 10-9 Sun 11-7
2,,405,455,Jackson,1133 Vann Drive,Jackson,TN,38305,(731) 660-1008,(731) 660-3506,Mon-Sat 9:30-8 Sun 11-6
2,,405,460,Zona Rosa,8948 NW Skyview Ave,Kansas City,MO,64154,(816) 746-1921,(816) 746-7942,Mon-Sat 10-8:30 Sun 11-7
2,,405,505,Murfreesboro,510 N. Thompson Lane,Murfreesboro,TN,37129,(615) 907-6307,(615) 893-7516,Mon-Sun 10-6
2,,405,526,Nashville,3904 Hillsboro Pike,Nashville,TN,37215,(615) 383-3015,(615) 383-3188,Mon-Fri 9:30-9 Sat 10-8:30 Sun 11-7
2,,405,545,Brookside,9 W 62nd Terrace,Kansas City,MO,64113,(816) 363-1223,(816) 363-0602,Mon-Fri 10-8:30 Sat 10-8 Sun 11-6
2,,405,550,St Peters,338 Mid Rivers Center Dr,St Peters,MO,63376,(636) 278-1201,(636) 278-1134,Mon-Fri 9:30-8:30 Sat 9:30-9 Sun 10-7
2,,405,556,St Louis,7025 S. Lindbergh Blvd,St. Louis,MO,63125,(314) 845-1671,(314) 845-1714,Mon-Fri 10-8:30 Sat 9:30-8:30 Sun 10-6
2,,405,568,Wichita,2210 N. Rock Road,Wichita,KS,67226,(316) 612-9658,(316) 612-9694,Mon-Sat 10:30-7:30 Sun 11-6
2,,405,569,Evansville,1031 North Green River Rd,Evansville,IN,47715,(812) 471-9167,(812) 471-9186,Mon-Fri 10-8:30 Sat 10-9 Sun 12-6
2,,405,628,Springfield,1315 Battlefield Road,Springfield,MO,65804,(417) 887-1302,(417) 887-1509,Mon-Sat 10-7:30 Sun 11-6
2,,405,669,Clarksville,2807 Wilma Rudolph Blvd,Clarksville,TN,37040,(931) 551-3885,(931) 551-9780,Mon-Fri 9:30-9 Sat 9:30-8:30 Sun 10-7
2,,405,698,Brentwood,1490 S. Hanley Rd,St Louis,MO,63144,(314) 647-2548,(314) 647-2561,Mon-Fri 10-8:30 Sat 9:30-8 Sun 10-6
2,,405,739,Cordova,2286 N. Germantown Pkwy,Cordova,TN,38016,(901) 384-4909,(901) 384-7995,Mon-Fri 10-8:30 Sat 10-9 Sun 11-6
2,,405,752,Winchester Rd.,7670 Winchester Road,Memphis,TN,38125,(901) 309-3470,(901) 737-1378,Mon-Fri 9:30-9 Sat 9:30-8 Sun 10-7
2,,405,765,Lee's Summit,905 NW Chipman Rd.,Lee's Summit,MO,64063,(816) 554-0348,(816) 554-0355,Mon-Fri 10-8:30 Sat 10-8 Sun 11-6
2,Amanda Stout,407,117,North Olmsted,26532 Lorain Rd,North Olmsted,OH,44070,(440) 801-1020,(440) 801-1025,Mon-Fri 9:30-9 Sat 9:30-8:30 Sun 10-6
2,Amanda Stout,407,129,Mayfield Hts,6255 Mayfield Rd,Cleveland,OH,44124,(440) 646-0233,(440) 646-9468,Mon-Fri 9:30-9 Sat 9:30-8 Sun 10-7
2,Amanda Stout,407,147,North Canton,4333 Everhard Road,Canton,OH,44718,(330) 966-8361,(330) 966-9248,Mon-Sat 9:30-8:30 Sun 10-6
2,Amanda Stout,407,198,Mentor,7837 Mentor Ave.,Mentor,OH,44060,(440) 205-9511,(440) 205-9527,Mon-Sat 9:30-9 Sun 11-7
2,Amanda Stout,407,217,Boardman Park,439 Boardman Poland Rd,Boardman,OH,44512,(330) 965-0697,(330) 965-0829,Mon-Fri 9:30-8:30 Sat 9:30-8 Sun 10-6
2,Amanda Stout,407,293,Toledo,5055 Monroe St,Toledo,OH,43623,(419) 475-1445,(419) 475-1279,Mon-Fri 9:30-9 Sat 9:30-8 Sun 10-6
2,Amanda Stout,407,315,Polaris,1370 Polaris Pkwy,Columbus,OH,43240,(614) 985-3185,(614) 985-3406,Mon-Sun 10-6
2,Amanda Stout,407,340,Mansfield,771 N Lexington Springmill Rd,Mansfield,OH,44906,(419) 747-4034,(419) 747-4652,Mon-Fri 9:30-6 Sat 9-6 Sun 10-6
2,Amanda Stout,407,510,Avon,35825 Detroit Rd,Avon,OH,44011,(440) 937-0730,(440) 937-0731,Mon-Fri 9:30-8:30 Sat 9:30-9 Sun 10-6
2,Amanda Stout,407,518,Niles,5704 Youngstown Warren Rd,Niles,OH,44446,(330) 349-9050,(330) 349-9051,Mon-Fri 9:30-8:30 Sat 9-8:30 Sun 10-6
2,Amanda Stout,407,529,Easton (Columbus),4053 Morse Crossing,Columbus,OH,43219,(614) 478-2803,(614) 478-3043,Mon-Sat 10-8:30 Sun 11-6
2,Amanda Stout,407,532,Lennox,1540 Olentangy River Rd,Columbus,OH,43212,(614) 299-2253,(614) 299-2267,Mon-Sat 9:30-8:30 Sun 11-6
2,Amanda Stout,407,548,Hilliard (Columbus),1505 Hilliard Rome Road,Columbus,OH,43228,(614) 878-6597,(614) 878-6627,Mon-Sat 10-9 Sun 11-7
2,Amanda Stout,407,566,Parma,7749 Day Drive,Cleveland,OH,44129,(440) 886-1650,(440) 886-1634,Mon-Fri 10-8:30 Sat 10-8 Sun 11-6
2,Amanda Stout,407,629,Woodmere,27820 Chagrin Blvd,Beachwood,OH,44122,(216) 595-3910,(216) 595-3836,Mon-Sat 10-8:30 Sun 12-6
2,Amanda Stout,407,685,Perrysburg,10000 Olde US 20,Rossford,OH,43460,(419) 874-3104,(419) 874-3113,Mon-Sun 10-6
2,Amanda Stout,407,723,Macedonia,463 E Aurora Road,Macedonia,OH,44056,(330) 908-2985,(330) 908-3330,Mon-Fri 10-8 Sat 9:30-8 Sun 10-6
2,Amanda Stout,407,788,Cuyahoga Falls,1190 Main Street,Cuyahoga Falls,OH,44221,(330) 922-4445,(330) 922-4453,Mon-Fri 10-9 Sat 10-8:30 Sun 10-6
2,Amanda Stout,407,854,Strongsville,17887 Southpark Center,Strongsville,OH,44136,(440) 238-5987,,Mon-Fri 10-8:30 Sat 9:30-8 Sun 11-6
2,Susie Balda-Whittington,409,79,W Palm Beach,4587 Okeechobee Blvd,West Palm Beach,FL,33417,(561) 682-9959,(561) 682-3249,Mon-Sat 9:30-9 Sun 10-7
2,Susie Balda-Whittington,409,114,JENSEN,2960 North Federal Hwy,Jensen Beach,FL,34957,(772) 692-7878,(772) 692-7151,Mon-Fri 9:30-8:30 Sat 9:30-8 Sun 10-6
2,Susie Balda-Whittington,409,118,Wellington,10590 Forest Hill Blvd,Wellington,FL,33414,(561) 784-2565,(561) 784-2567,Mon-Fri 9:30-9 Sat 9:30-8:30 Sun 10-7
2,Susie Balda-Whittington,409,188,Boynton Beach,302 N. Congress Ave,Boynton Beach,FL,33426,(561) 733-8058,(561) 732-6217,Mon-Fri 9:30-9 Sat 9-9 Sun 9:30-7
2,Susie Balda-Whittington,409,223,Melbourne,1653 West New Haven Ave,Melbourne,FL,32904,(321) 952-2690,(321) 952-2091,Mon-Sat 9:30-8:30 Sun 10-7
2,Susie Balda-Whittington,409,286,Palm Beach Gardens,11320 Legacy Ave,Palm Beach Gardens,FL,33410,(561) 622-1679,(561) 622-1493,Mon-Sat 10-8:30 Sun 10-6
2,Susie Balda-Whittington,409,298,Daytona Beach,2266 International Speedway Blvd,Daytona Bch,FL,32114,(386) 238-8854,(386) 238-8897,Mon-Sat 9:30-8 Sun 11-6
2,Susie Balda-Whittington,409,334,Waterford Lakes,464 N. Alafaya Trail,Orlando,FL,32828,(407) 273-8159,(407) 273-1896,Mon-Sat 10-9 Sun 10-7
2,Susie Balda-Whittington,409,351,Vero Beach,6280 20th Street,Vero Beach,FL,32966,(772) 978-7219,(772) 978-7289,Mon-Sat 9:30-8:30 Sun 10-7
2,Susie Balda-Whittington,409,385,Palm Coast,5234 State Road 100,Palm Coast,FL,32164,(386) 313-2650,(386) 313-2701,Mon-Sat 9:30-8 Sun 10-6
2,Susie Balda-Whittington,409,403,Deerfield Beach,35 South Federal Highway,Deerfield Beach,FL,33441,(954) 420-5587,(954) 420-0956,Mon-Fri 9:30-8:30 Sat 9:30-8 Sun 11-6
2,Susie Balda-Whittington,409,404,Coconut Creek,5463 Lyons Rd,Pompano Beach,FL,33073,(954) 354-1999,(954) 354-1888,Mon-Fri 9:30-9 Sat 9:30-8:30 Sun 11-7
2,Susie Balda-Whittington,409,417,Port St. Lucie,1756 SW St. Lucie West Blvd,Port St. Lucie,FL,34986,(772) 879-2405,(772) 878-0518,Mon-Fri 9:30-8:30 Sat 9:30-8 Sun 10-6
2,Susie Balda-Whittington,409,419,Merritt Island,800 E. Merritt Island Causeway,Merritt Island,FL,32952,(321) 454-9434,(321) 454-9424,Mon-Sat 10-8 Sun 10-6
2,Susie Balda-Whittington,409,440,Jupiter,903 W. Indiantown RD,Jupiter,FL,33458,(561) 747-9561,(561) 747-9213,Mon-Sat 9:30-8:30 Sun 10-6
2,Susie Balda-Whittington,409,618,Boca-Mizner,880 N Federal Highway,Boca Raton,FL,33432,(561) 417-5342,(561) 417-5123,Mon-Sat 9:30-8:30 Sun 11-6
2,Susie Balda-Whittington,409,699,Palm Beach Lakes,1815 Palm Beach Lakes Blvd,West Palm Beach,FL,33401,(561) 684-1913,(561) 471-8238,Mon-Fri 9:30-9 Sat 9:30-8:30 Sun 11-7
2,Susie Balda-Whittington,409,703,Boca Raton,20600 Lyons Rd,Boca Raton,FL,33434,(561) 479-4223,(561) 479-3723,Mon-Fri 9:30-9 Sat 9:30-8:30 Sun 10-6
2,Susie Balda-Whittington,409,774,Delray Place,1811 Federal Hwy,Delray Beach,FL,33483,(561) 278-1579,(561) 278-1986,Mon-Fri 9:30-9 Sat 9:30-8:30 Sun 10-6
2,Susie Balda-Whittington,409,775,Sanford,1516 Rinehart Rd,Sanford,FL,32771,(407) 302-7256,(407) 688-6086,Mon-Fri 9:30-8:30 Sat 9:30-9 Sun 10-6
2,Marisa Moriarty,410,207,Columbus,5555 Whittlesey Blvd,Columbus,GA,31909,(706) 653-2588,(706) 653-8213,Mon-Sat 9:30-9 Sun 10-7
2,Marisa Moriarty,410,225,Panama City,2296 Martin Luther King Blvd,Panama City,FL,32405,(850) 522-8803,(850) 522-9580,Mon-Fri 9:30-9 Sat 10-9 Sun 11-7
2,Marisa Moriarty,410,244,Tallahassee,1313 Apalachee Pkwy,Tallahassee,FL,32301,(850) 216-1618,(850) 216-1802,Mon-Sat 9:30-8 Sun 10-6
2,Marisa Moriarty,410,261,Montgomery,7345 Eastchase Parkway,Montgomery,AL,36117,(334) 279-4061,(334) 279-5892,Mon-Fri 9:30-9 Sat 9:30-8 Sun 10-7
2,Marisa Moriarty,410,282,Slidell,179 Northshore Blvd.,Slidell,LA,70460,(985) 646-2294,(985) 639-9316,Mon-Fri 9:30-8 Sat 9-8 Sun 10-7
2,Marisa Moriarty,410,383,Pensacola,5090 N. 9th Ave,Pensacola,FL,32504,(850) 474-0561,(850) 474-0549,Mon-Fri 9:30-9 Sat 9:30-8:30 Sun 10-7
2,Marisa Moriarty,410,494,Destin,34737 Emerald Parkway,Destin,FL,32541,(850) 650-0393,(850) 650-0394,Mon-Sat 9:30-9 Sun 10-6
2,Marisa Moriarty,410,506,Mobile,3659 Airport Blvd,Mobile,AL,36608,(251) 342-2967,(251) 342-2965,Mon-Sat 9:30-8 Sun 10-7
2,Marisa Moriarty,410,615,Baton Rouge,7601 Andrea Drive,Baton Rouge,LA,70809,(225) 292-5927,(225) 292-3128,Mon-Sat 9:30-8 Sun 11-6
2,Marisa Moriarty,410,668,Lafayette,5702 Johnston Street,Lafayette,LA,70503,(337) 406-1093,(337) 406-1844,Mon-Sat 10-8 Sun 10-6
2,Marisa Moriarty,410,693,Metairie,4015 Veterans Memorial Blvd,Metairie,LA,70002,(504) 883-5129,(504) 457-6998,Mon-Fri 9:30-8:30 Sat 10-8:30 Sun 10-7
2,Marisa Moriarty,410,746,Jackson,1220 E Northside Drive,Jackson,MS,39211,(601) 362-1781,(601) 362-1801,Mon-Fri 9:30-8 Sat 10-8 Sun 11-6
2,Marisa Moriarty,410,857,Harvey,1523 Manhattan Blvd,Harvey,LA,70058,(504) 362-2093,(504) 362-2094,Mon-Sat 10-8 Sun 11-6
2,John Williams,414,219,Buford,3226 Buford Dr.,Buford,GA,30519,(770) 904-5964,(770) 904-5961,Mon-Sat 9:30-9 Sun 10-7
2,John Williams,414,233,Orange Park,60 Blanding Blvd,Orange Park,FL,32073,(904) 298-1525,(904) 298-1527,Mon-Fri 9:30-8 Sat 9:30-8:30 Sun 10-6
2,John Williams,414,248,Edgewood,1209 Caroline St,Atlanta,GA,30307,(404) 659-3127,(404) 659-6796,Mon-Fri 10-8:30 Sat 9:30-8:30 Sun 11-7
2,John Williams,414,252,St Johns,4668 Town Crossing Dr.,Jacksonville,FL,32246,(904) 928-9268,(904) 928-9331,Mon-Sat 10-8 Sun 11-7
2,John Williams,414,410,Snellville,2118 Scenic Highway,Snellville,GA,30078,(770) 972-8057,(770) 972-8073,Mon-Fri 9:30-8:30 Sat 10-8 Sun 10-7
2,John Williams,414,499,Perimeter Mall,1165 Perimeter Center West,Atlanta,GA,30338,(770) 396-7152,(770) 396-7162,Mon-Fri 10-9 Sat 10-8:30 Sun 10-7
2,John Williams,414,654,Athens,1789 Oconee Connector,Athens,GA,30606,(706) 583-9411,(706) 552-0757,Mon-Fri 9:30-8:30 Sat 9:30-9 Sun 11-7
2,John Williams,414,712,Buck Head,3261 Peachtree Rd,Atlanta,GA,30305,(404) 262-0400,(404) 262-0405,Mon-Fri 9:30-9 Sat 9:30-8:30 Sun 10-7
2,John Williams,414,713,Gwinnett,2130 Pleasant Hill Rd,Duluth,GA,30096,(678) 957-0101,(678) 957-0701,Mon-Fri 10-9 Sat 10-8:30 Sun 11-7
2,John Williams,414,771,Conyers,1285 B Hwy 138,Conyers,GA,30013,(770) 760-0663,(770) 760-0664,Mon-Fri 10-9 Sat 9:30-8:30 Sun 10-6
2,John Williams,414,805,St Augustine,2125 US Hwy 1 South,St Augustine,FL,32086,(904) 797-1578,(904) 797-8320,Mon-Sat 9:30-8 Sun 10-6
2,John Williams,414,820,Gainsville,675 Dawsonville Highway,Gainesville,GA,30501,(770) 535-9215,(770) 535-7208,Mon-Fri 10-8:30 Sat 10-8 Sun 11-6
2,John Williams,414,853,Cumming,1690 Marketplace Blvd,Cumming,GA,30041,(678) 513-9965,,Mon-Fri 10-8 Sat 10-8:30 Sun 11-6
2,John Williams,414,855,Mandarin,11200 San Jose Blvd,Jacksonville,FL,32223,(904) 886-2711,,Mon-Fri 9:30-8 Sat 10-8 Sun 11-6
2,John Williams,414,864,Jacksonville (River City),15128 Max Legget Parkway,Jacksonville,FL,32218,(904) 757-7079,,Mon-Fri 10-8:30 Sat 10-8 Sun 11-7
2,John Williams,414,865,Alpharetta,7300 North Point Pkwy,Apharetta,GA,30022,(770) 410-7628,,Mon-Fri 10-9 Sat 10-8:30 Sun 11-7
3,Cara McVey,207,172,Copperfield,7009 Highway 6 North,Houston,TX,77095,(281) 463-4193,(281) 858-0593,Mon-Sat 9:30-9 Sun 10-6
3,Cara McVey,207,185,Westheimer,7501 Westheimer Rd,Houston,TX,77063,(713) 435-0929,(713) 435-0935,Mon-Sat 9:30-9 Sun 10-7
3,Cara McVey,207,192,Conroe,19075 Interstate 45 North,Conroe,TX,77385,(936) 321-2234,(936) 273-2269,Mon-Sat 9:30-8 Sun 10-7
3,Cara McVey,207,204,Katy,19712 Katy Freeway,Houston,TX,77094,(281) 829-3315,(281) 829-3359,Mon-Fri 9:30-8:30 Sat 9:30-8 Sun 10-7
3,Cara McVey,207,208,Baybrook-Wbstr,19411 Gulf Freeway,Webster,TX,77598,(281) 554-2364,(281) 557-9129,Mon-Fri 9:30-9 Sat 9-8:30 Sun 10-7
3,Cara McVey,207,232,Rice Village,5829 Kirby Dr,Houston,TX,77005,(713) 528-2531,(713) 528-2872,Mon-Fri 10-8:30 Sat 9:30-8 Sun 10-6
3,Cara McVey,207,278,Pasadena,5683 Fairmont Pkwy,Pasadena,TX,77505,(281) 991-0264,(281) 991-0713,Mon-Fri 9:30-9 Sat 9:30-8:30 Sun 10-7
3,Cara McVey,207,285,Willowbrook,7504 FM 1960 W,Houston,TX,77070,(281) 955-5290,(281) 955-5993,Mon-Sat 10-9 Sun 10-7
3,Cara McVey,207,428,Pearland,11414 Broadway St.,Pearland,TX,77584,(713) 340-1736,(713) 340-1752,Mon-Fri 9:30-9 Sat 9:30-8:30 Sun 10-7
3,Cara McVey,207,445,Beaumont,5899 Eastex Freeway,Beaumont,TX,77706,(409) 924-9123,(409) 924-0734,Mon-Fri 9-8:30 Sat 9-8 Sun 10-7
3,Cara McVey,207,467,West Oaks,13341 Westheimer Road,Houston,TX,77077,(281) 531-7122,(281) 531-7148,Mon-Fri 10-9 Sat 9:30-8 Sun 10-7
3,Cara McVey,207,484,Sawyer Heights,2423 Katy Freeway,Houston,TX,77007,(713) 868-3775,(713) 868-3776,Mon-Sat 9:30-9 Sun 10-7
3,Cara McVey,207,516,Memorial Cty,10201-A Katy Freeway,Houston,TX,77024,(713) 467-6784,(713) 467-2803,Mon-Fri 10-8:30 Sat 9:30-9 Sun 11-6
3,Cara McVey,207,621,Baytown,4567 Garth Road,Baytown,TX,77521,(281) 420-7497,(281) 420-8061,Mon-Fri 9:30-9 Sat 9:30-8:30 Sun 11-7
3,Cara McVey,207,757,Humble,19723 Highway 59 N,Humble,TX,77338,(281) 540-7279,(281) 540-7285,Mon-Sat 9:30-8:30 Sun 11-6
3,Cara McVey,207,808,Lake Charles,339 West Prien Lake Rd,Lake Charles,LA,70601,(337) 477-3335,(337) 477-3336,Mon-Fri 9-8 Sat 9-8:30 Sun 11-7
3,Cara McVey,207,872,Grand Parkway-Houston,6705 N. Grand Parkway W,Spring,TX,77389,(832) 717-0288,,Mon-Sat 10-8 Sun 12-6
3,Dwayne Privott,208,155,West Plano,5930 W. Park Blvd,Plano,TX,75093,(972) 250-2365,(972) 250-4453,Mon-Sat 10-8:30 Sun 10-6
3,Dwayne Privott,208,158,Frisco,2995 Preston Rd.,Frisco,TX,75034,(972) 334-9920,(972) 334-9924,Mon-Fri 9:30-8:30 Sat 9-8:30 Sun 10-6
3,Dwayne Privott,208,209,Northpark,5425 Greenville Ave.,Dallas,TX,75206,(214) 750-8064,(214) 750-8632,Mon-Fri 9:30-9 Sat 9-9 Sun 10-7
3,Dwayne Privott,208,307,East Plano,1001 North Central Expressway,Plano,TX,75075,(972) 422-4106,(972) 422-4165,Mon-Sat 10-9 Sun 10-6
3,Dwayne Privott,208,432,Allen,190 E. Stacy Road,Allen,TX,75002,(972) 678-1751,(972) 678-1753,Mon-Fri 9:30-8:30 Sat 9:30-8 Sun 11-7
3,Dwayne Privott,208,600,Tulsa,8247 E. 71st Street,Tulsa,OK,74133,(918) 307-2212,(918) 459-5471,Mon-Sat 10-8:30 Sun 11-6
3,Dwayne Privott,208,682,Fort Smith,3901 Phoenix Ave,Fort Smith,AR,72903,(479) 646-2492,(479) 646-2612,Mon-Fri 9:30-8 Sat 9:30-8:30 Sun 11-6
3,Dwayne Privott,208,686,North Little Rock,4302 East McCain Blvd,North Little Rock,AR,72117,(501) 945-8042,(501) 945-8066,Mon-Sat 9:30-8:30 Sun 10-6
3,Dwayne Privott,208,700,Oklahoma City,2408 West Memorial Rd,Oklahoma City,OK,73134,(405) 302-4850,(405) 302-4851,Mon-Fri 9:30-8:30 Sat 9:30-8 Sun 10-7
3,Dwayne Privott,208,758,Dallas,4117 Lemmon Ave,Dallas,TX,75219,(214) 780-0143,,Mon-Sat 9:30-9 Sun 10-7
3,Dwayne Privott,208,823,Oklahoma Cty West,6501 Southwest 3rd Street,Oklahoma City,OK,73128,(405) 491-2619,(405) 491-2620,Mon-Sat 10-8:30 Sun 12-6
3,Journey Armstrong,210,226,Centennial,8283 S. Akron Street,Centennial,CO,80112,(303) 708-8861,(303) 708-8935,Mon-Fri 10-7 Sat 9:30-7 Sun 11-7
3,Journey Armstrong,210,243,Colorado Springs North,7325 N Academy Blvd,Colorado Springs,CO,80920,(719) 598-0638,(719) 598-3159,Mon-Fri 9:30-8 Sat 9:30-7 Sun 10-6
3,Journey Armstrong,210,290,Boise,347 N. Milwaukee St,Boise,ID,83704,(208) 672-3445,(208) 672-1146,Mon-Sat 9:30-8:30 Sun 10-6
3,Journey Armstrong,210,309,Northglenn,11985 Washington St,Denver,CO,80233,(303) 920-9292,(303) 920-1063,Mon-Fri 9:30-9 Sat 9:30-8 Sun 10-6
3,Journey Armstrong,210,318,Fort Collins,2600 S College Ave,Fort Collins,CO,80525,(970) 204-6653,(970) 204-1083,Mon-Fri 9:30-8 Sat 10-7 Sun 10-6
3,Journey Armstrong,210,321,Colorado Springs South,2002 Southgate Rd,Colorado Springs,CO,80906,(719) 667-1232,(719) 667-1234,Mon-Sat 10-8 Sun 10-6
3,Journey Armstrong,210,371,Cherry Creek,385 South Colorado Blvd,Denver,CO,80246,(303) 321-0379,(303) 321-0966,Mon-Sat 10-8 Sun 10-7
3,Journey Armstrong,210,378,Littleton,5392 S Wadsworth Blvd,Littleton,CO,80123,(303) 948-5417,(303) 948-5947,Mon-Fri 9:30-8 Sat 10-8 Sun 11-6
3,Journey Armstrong,210,586,Sandy,10515 S. State Street,Sandy,UT,84070,(801) 571-1472,(801) 571-1512,Mon-Fri 10-9 Sat 10-8:30 Sun 11-6
3,Journey Armstrong,210,837,Nampa,16375 N. Merchant Way,Nampa,ID,83687,(208) 442-7892,,Mon-Fri 9:30-8 Sat 10-8 Sun 11-6
3,Journey Armstrong,210,1014,Spokane Valley,6630 E Sprague Avenue,Spokane,WA,99212,(509) 456-3660,,Mon-Fri 9-8:30 Sat 9:30-8 Sun 10-6
3,Journey Armstrong,210,1015,Spokane City,2513 N Ruby Street,Spokane,WA,99207,(509) 326-8505,,Mon-Sat 9:30-8:30 Sun 10-6
3,Journey Armstrong,210,1019,Kennewick,5200 W Clearwater Avenue,Kennewick,WA,99336,(509) 736-6390,,Mon-Fri 9:30-7 Sat 9-7 Sun 11-7
3,Journey Armstrong,210,1022,Coeur d'Alene,403 W Neider Avenue,Coeur D Alene,ID,83815,(208) 665-1500,,Mon-Fri 9-8 Sat 9:30-8 Sun 11-6
3,Don Donaldson,213,246,Waco,2456 W Loop 340,Waco,TX,76711,(254) 662-6921,(254) 662-1894,Mon-Fri 9:30-8 Sat 9:30-8:30 Sun 11-6
3,Don Donaldson,213,247,Round Rock,3151 South IH 35,Round Rock,TX,78664,(512) 310-5718,(512) 310-7135,Mon-Fri 10-9 Sat 10-8:30 Sun 11-6
3,Don Donaldson,213,314,The Rim,17602 La Cantera Parkway,San Antonio,TX,78257,(210) 694-2195,(210) 694-2329,Mon-Sat 10-8:30 Sun 11-6
3,Don Donaldson,213,328,Park North (San Antonio),438 NW Loop 410,San Antonio,TX,78216,(210) 541-6749,(210) 541-6760,Mon-Fri 10-9 Sat 9:30-9 Sun 11-6
3,Don Donaldson,213,365,McAllen,4001 N. 10th St,McAllen,TX,78504,(956) 682-6239,(956) 682-6592,Mon-Sat 9:30-9 Sun 11-7
3,Don Donaldson,213,375,Brownsville,101 East Morrison Rd,Brownsville,TX,78526,(956) 350-0494,(956) 350-0585,Mon-Fri 9:30-9 Sat 9:30-8:30 Sun 10-7
3,Don Donaldson,213,386,Arboretum (Austin),10225 Research Blvd.,Austin,TX,78759,(512) 342-6920,(512) 342-7910,Mon-Fri 10-8:30 Sat 10-8 Sun 11-7
3,Don Donaldson,213,387,Alamo Ranch,5531 N W Loop 1604,San Antonio,TX,78253,(210) 647-0723,(210) 647-0773,Mon-Fri 10-9 Sat 10-8 Sun 10-7
3,Don Donaldson,213,389,Corpus Christi,5425 South Padre Island Drive,Corpus Christi,TX,78411,(361) 906-0729,(361) 906-1746,Mon-Fri 9:30-8:30 Sat 9:30-8 Sun 10-7
3,Don Donaldson,213,435,Georgetown,1003 West University,Georgetown,TX,78628,(512) 868-2035,(512) 868-2193,Mon-Sat 9:30-8 Sun 11-6
3,Don Donaldson,213,581,Harker Heights,201 East Central Texas Expressway,Harker Heights,TX,76548,(254) 699-0230,(254) 699-0231,Mon-Sat 10-9 Sun 10-6
3,Don Donaldson,213,603,Laredo,7305 San Dario Ave,Laredo,TX,78045,(956) 753-3068,(956) 753-3085,Mon-Fri 9:30-9 Sat 10-8:30 Sun 11-6
3,Don Donaldson,213,636,Sunset Valley,5400 Brodie Lane,Austin,TX,78745,(512) 891-0748,(512) 891-0765,Mon-Sat 10-8 Sun 11-6
3,Don Donaldson,213,647,Hill Country Villiage,1803 N. Loop 1604 E.,San Antonio,TX,78232,(210) 491-4311,(210) 491-4321,Mon-Fri 10-9 Sat 10-8 Sun 11-7
3,Don Donaldson,213,674,Midland,2820 Loop 250 Frontage Road,Midland,TX,79705,(432) 689-2728,(432) 689-2741,Mon-Sat 10-8:30 Sun 11-7
3,Don Donaldson,213,675,South Park,2350 Southwest Military Drive,San Antonio,TX,78224,(210) 922-1594,(210) 922-1598,Mon-Sat 9:30-8 Sun 11-7
3,Jan Pena,214,163,Denton,1507 S Loop 288,Denton,TX,76205,(940) 383-2111,(940) 387-2450,Mon-Sat 10-8 Sun 11-6
3,Jan Pena,214,168,Mesquite,18661 LBJ Freeway,Mesquite,TX,75150,(972) 270-8004,(972) 270-8131,Mon-Fri 9:30-9 Sat 9-9 Sun 10-7
3,Jan Pena,214,184,Southlake,2600 East Southlake Blvd,Southlake,TX,76092,(817) 749-0444,(817) 749-0448,Mon-Sat 9:30-8 Sun 10-6
3,Jan Pena,214,191,Las Colinas (Irving),800 Market Place Blvd,Irving,TX,75063,(972) 501-0395,(972) 501-9425,Mon-Fri 9:30-9 Sat 9:30-8:30 Sun 10-7
3,Jan Pena,214,218,Hurst,1495 West Pipeline Rd,Hurst,TX,76053,(817) 282-9650,(817) 282-9652,Mon-Sat 9:30-8 Sun 10-7
3,Jan Pena,214,224,Lewisville,2397 B South Stemmons Freeway,Lewisville,TX,75067,(972) 459-9513,(972) 459-9585,Mon-Sat 9:30-8:30 Sun 11-6
3,Jan Pena,214,230,Cedar Hill,719 US Highway 67 N,Cedar Hill,TX,75104,(972) 291-7684,(972) 293-0673,Mon-Fri 9:30-8:30 Sat 9:30-9 Sun 10-7
3,Jan Pena,214,292,Arlington,4701 S Cooper St,Arlington,TX,76017,(817) 472-5478,(817) 472-5547,Mon-Sat 9:30-9 Sun 10-7
3,Jan Pena,214,301,Hulen,4801 S. Hulen St.,Ft Worth,TX,76132,(817) 423-4326,(817) 423-1589,Mon-Fri 9:30-8:30 Sat 9:30-9 Sun 10-7
3,Jan Pena,214,411,Flower Mound,6230 Long Prairie Rd,Flower Mound,TX,75028,(972) 355-4953,(972) 539-6157,Mon-Sat 10-8 Sun 11-7
3,Jan Pena,214,542,Rockwall,1035 IH-30,Rockwall,TX,75087,(214) 771-4360,(214) 771-4361,Mon-Sat 9:30-8:30 Sun 11-7
3,Jan Pena,214,659,Tyler,8922 S Broadway Ave,Tyler,TX,75703,(903) 581-3976,(903) 581-3994,Mon-Sat 10-8 Sun 11-6
3,Jan Pena,214,827,Alliance,2317 North Tarrant Pkwy,Fort Worth,TX,76177,(817) 306-4640,,Mon-Fri 10-9 Sat 9:30-8:30 Sun 10-7
3,Lesley Salazar,303,125,Woodland Hills,21436 West Victory Blvd,Woodland Hills,CA,91367,(818) 883-2342,(818) 883-2362,Mon-Sat 10-9 Sun 11-7
3,Lesley Salazar,303,138,Palmdale,39256 10th Street West,Palmdale,CA,93551,(661) 273-9864,(661) 273-9897,Mon-Fri 9:30-9 Sat 9:30-8 Sun 10-7
3,Lesley Salazar,303,139,Northridge,9100 Tampa Ave,Northridge,CA,91324,(818) 718-6514,(818) 718-6158,Mon-Sat 9:30-9 Sun 10-6
3,Lesley Salazar,303,148,Ventura,4860 Telephone Rd,Ventura,CA,93003,(805) 642-1072,(805) 642-1938,Mon-Sat 9:30-9 Sun 10-7
3,Lesley Salazar,303,181,Thousand Oaks,75 E Thousand Oaks Blvd,Thousand Oaks,CA,91360,(805) 418-6190,(805) 418-6192,Mon-Sat 10-9 Sun 10-6
3,Lesley Salazar,303,193,Fairfax,101 North Fairfax Ave,Los Angeles,CA,90036,(323) 936-6839,(323) 936-6519,Mon-Fri 9:30-9 Sat 9-9 Sun 10-7
3,Lesley Salazar,303,276,Manhattan Beach,1800-G Rosecrans Ave,Manhattan Bch,CA,90266,(310) 643-5634,(310) 643-5671,Mon-Sat 9:30-9 Sun 9:30-7
3,Lesley Salazar,303,323,Marina Del Rey,13376 Washington Blvd,Los Angeles,CA,90066,(310) 301-3590,(310) 823-4697,Mon-Fri 9:30-9 Sat 9-8:30 Sun 10-6
3,Lesley Salazar,303,416,West Los Angeles,1901 Westwood Blvd,Los Angeles,CA,90025,(310) 234-2718,(310) 441-9372,Mon-Fri 10-6 Sat 10-7 Sun 11-6
3,Lesley Salazar,303,562,Santa Monica,2838 Wilshire Blvd,Santa Monica,CA,90403,(310) 828-8138,(310) 828-8539,Mon-Sat 10-8 Sun 11-6
3,Lesley Salazar,303,578,Encino,16624 Ventura Blvd,Encino,CA,91436,(818) 386-0284,(818) 386-9654,Mon-Fri 10-8:30 Sat 10-8 Sun 10-6
3,Lesley Salazar,303,608,Valencia,24280 Valencia Blvd,Valencia,CA,91355,(661) 255-5148,(661) 255-5476,Mon-Fri 9:30-9 Sat 9:30-8:30 Sun 10-7
3,Lesley Salazar,303,620,Goleta,6900 Hollister Ave,Goleta,CA,93117,(805) 562-3590,(805) 968-0305,Mon-Sat 10:30-7 Sun 11-6
3,Lesley Salazar,303,803,Simi Valley,2931 Cochran St,Simi Valley,CA,93065,(805) 583-5279,(805) 583-5583,Mon-Sat 10-8 Sun 10-6
3,Lesley Salazar,303,838,Studio City,12741 Ventura Blvd.,Studio City,CA,91604,(818) 761-1826,(818) 761-1858,Mon-Sat 9:30-9 Sun 10-7
3,Lesley Salazar,303,859,Mission Hills,10402 Sepulveda Blvd,Mission Hills,CA,91345,(818) 361-1768,,Mon-Sat 9:30-9 Sun 10-6
3,Teresa Schroer,304,132,Costa Mesa,3929 S. Bristol St,Santa Ana,CA,92704,(714) 424-9515,(714) 424-9516,Mon-Fri 10-9 Sat 9:30-8:30 Sun 10-7
3,Teresa Schroer,304,133,Aliso Viejo,26831 Aliso Creek Rd,Aliso Viejo,CA,92656,(949) 349-0690,(949) 349-0695,Mon-Fri 10-8:30 Sat 10-8 Sun 10-7
3,Teresa Schroer,304,149,Oceanside,2641-A  Vista Way,Oceanside,CA,92054,(760) 433-4109,(760) 433-4180,Mon-Fri 10-8:30 Sat 9:30-8:30 Sun 10-6
3,Teresa Schroer,304,151,Main Place,655 S. Main St,Orange,CA,92868,(714) 564-0660,(714) 564-0662,Mon-Fri 10-8 Sat 10-8:30 Sun 12-7
3,Teresa Schroer,304,156,San Diego,3111 Sports Arena Blvd,San Diego,CA,92110,(619) 758-0831,(619) 758-0696,Mon-Sat 9:30-8 Sun 10-6
3,Teresa Schroer,304,176,Huntington Bch,7672 Edinger Ave,Huntington Beach,CA,92647,(714) 847-7651,(714) 841-1129,Mon-Fri 9:30-9 Sat 9:30-8:30 Sun 10-7